{
"type": "FeatureCollection",
"name": "areas",
"crs": { "type": "name", "properties": { "name": "urn:ogc:def:crs:EPSG::31984" } },
"features": [
{ "type": "Feature", "properties": { "Name": "Estação de vapor V", "description": null, "timestamp": null, "begin": null, "end": null, "altitudeMode": null, "tessellate": -1, "extrude": 0, "visibility": -1, "drawOrder": null, "icon": null }, "geometry": { "type": "Polygon", "coordinates": [ [ [ 723575.549062381614931, 8822394.559237826615572, 0.0 ], [ 723563.456316891824827, 8821986.337653759866953, 0.0 ], [ 723955.45105272042565, 8821958.082011565566063, 0.0 ], [ 723951.146397129283287, 8822373.416119433939457, 0.0 ], [ 723575.549062381614931, 8822394.559237826615572, 0.0 ] ] ] } },
{ "type": "Feature", "properties": { "Name": "Estação de água de oiteirinhos", "description": null, "timestamp": null, "begin": null, "end": null, "altitudeMode": null, "tessellate": -1, "extrude": 0, "visibility": -1, "drawOrder": null, "icon": null }, "geometry": { "type": "Polygon", "coordinates": [ [ [ 722103.449910536408424, 8823019.666412379592657, 0.0 ], [ 722038.147838560747914, 8822730.776069913059473, 0.0 ], [ 722074.308010723441839, 8822513.54544703476131, 0.0 ], [ 722571.570195230888203, 8822423.965918999165297, 0.0 ], [ 722650.002046691137366, 8822925.084481574594975, 0.0 ], [ 722103.449910536408424, 8823019.666412379592657, 0.0 ] ] ] } },
{ "type": "Feature", "properties": { "Name": "Estação ilha Pequena", "description": null, "timestamp": null, "begin": null, "end": null, "altitudeMode": null, "tessellate": -1, "extrude": 0, "visibility": -1, "drawOrder": null, "icon": null }, "geometry": { "type": "Polygon", "coordinates": [ [ [ 697101.486309989821166, 8776175.058194857090712, 0.0 ], [ 697089.011673235101625, 8775662.613725302740932, 0.0 ], [ 697541.454876748495735, 8775648.224986992776394, 0.0 ], [ 697564.541611400782131, 8776168.759313197806478, 0.0 ], [ 697134.311066640191711, 8776174.859708145260811, 0.0 ], [ 697101.486309989821166, 8776175.058194857090712, 0.0 ] ] ] } },
{ "type": "Feature", "properties": { "Name": "Robalo", "description": null, "timestamp": null, "begin": null, "end": null, "altitudeMode": null, "tessellate": -1, "extrude": 0, "visibility": -1, "drawOrder": null, "icon": null }, "geometry": { "type": "Polygon", "coordinates": [ [ [ 749518.962671254994348, 8825719.339830279350281, 0.0 ], [ 749151.696800503879786, 8824965.899658780544996, 0.0 ], [ 750149.646689554909244, 8824599.180234886705875, 0.0 ], [ 750489.033815972274169, 8825390.154701478779316, 0.0 ], [ 749518.962671254994348, 8825719.339830279350281, 0.0 ] ] ] } },
{ "type": "Feature", "properties": { "Name": "Estação de Siririzinho I + estação de inejeção de água de SZI", "description": null, "timestamp": null, "begin": null, "end": null, "altitudeMode": null, "tessellate": -1, "extrude": 0, "visibility": -1, "drawOrder": null, "icon": null }, "geometry": { "type": "Polygon", "coordinates": [ [ [ 708257.516946589807048, 8823568.665362345054746, 0.0 ], [ 708189.116587661905214, 8822754.86433800123632, 0.0 ], [ 709102.095134680042975, 8822679.253125248476863, 0.0 ], [ 709149.573402349371463, 8823523.51992005482316, 0.0 ], [ 708299.779648723779246, 8823568.406047215685248, 0.0 ], [ 708257.516946589807048, 8823568.665362345054746, 0.0 ] ] ] } },
{ "type": "Feature", "properties": { "Name": "Estação Bonsucesso", "description": null, "timestamp": null, "begin": null, "end": null, "altitudeMode": null, "tessellate": -1, "extrude": 0, "visibility": -1, "drawOrder": null, "icon": null }, "geometry": { "type": "Polygon", "coordinates": [ [ [ 718899.363176227896474, 8821098.619161613285542, 0.0 ], [ 718683.483558783773333, 8819667.556094346567988, 0.0 ], [ 720636.944303223164752, 8819640.87703756429255, 0.0 ], [ 720740.327034693444148, 8821091.330100754275918, 0.0 ], [ 718899.363176227896474, 8821098.619161613285542, 0.0 ] ] ] } },
{ "type": "Feature", "properties": { "Name": "Estação Treme", "description": null, "timestamp": null, "begin": null, "end": null, "altitudeMode": null, "tessellate": -1, "extrude": 0, "visibility": -1, "drawOrder": null, "icon": null }, "geometry": { "type": "Polygon", "coordinates": [ [ [ 690541.431478020967916, 8812284.191766371950507, 0.0 ], [ 690446.516225354047492, 8811690.058489046990871, 0.0 ], [ 691224.999569373438135, 8811550.369705824181437, 0.0 ], [ 691362.625277619459666, 8812223.552665079012513, 0.0 ], [ 690541.431478020967916, 8812284.191766371950507, 0.0 ] ] ] } },
{ "type": "Feature", "properties": { "Name": "Estação Coqueiro", "description": null, "timestamp": null, "begin": null, "end": null, "altitudeMode": null, "tessellate": -1, "extrude": 0, "visibility": -1, "drawOrder": null, "icon": null }, "geometry": { "type": "Polygon", "coordinates": [ [ [ 697235.705053280456923, 8815117.898179231211543, 0.0 ], [ 697232.493279807735234, 8814769.231505423784256, 0.0 ], [ 697929.899476355640218, 8814604.216238461434841, 0.0 ], [ 698054.508722305297852, 8815036.134322315454483, 0.0 ], [ 697235.705053280456923, 8815117.898179231211543, 0.0 ] ] ] } },
{ "type": "Feature", "properties": { "Name": "Estação Nova Magalhães + Vapor III", "description": null, "timestamp": null, "begin": null, "end": null, "altitudeMode": null, "tessellate": -1, "extrude": 0, "visibility": -1, "drawOrder": null, "icon": null }, "geometry": { "type": "Polygon", "coordinates": [ [ [ 724743.956026281928644, 8823995.821276167407632, 0.0 ], [ 724991.300075431470759, 8823755.013913055881858, 0.0 ], [ 725223.662668814999051, 8823910.968955349177122, 0.0 ], [ 724957.573453931952827, 8824158.905727814882994, 0.0 ], [ 724743.956026281928644, 8823995.821276167407632, 0.0 ] ] ] } },
{ "type": "Feature", "properties": { "Name": "Estação Bonfim", "description": null, "timestamp": null, "begin": null, "end": null, "altitudeMode": null, "tessellate": -1, "extrude": 0, "visibility": -1, "drawOrder": null, "icon": null }, "geometry": { "type": "Polygon", "coordinates": [ [ [ 697609.544158486300148, 8817231.562987359240651, 0.0 ], [ 697578.982726844144054, 8816823.551786767318845, 0.0 ], [ 698305.840619815862738, 8816667.677997732535005, 0.0 ], [ 698407.137173156486824, 8817126.581786407157779, 0.0 ], [ 697654.148912453092635, 8817231.301851743832231, 0.0 ], [ 697609.544158486300148, 8817231.562987359240651, 0.0 ] ] ] } }
]
}
