{
"type": "FeatureCollection",
"name": "pontos",
"crs": { "type": "name", "properties": { "name": "urn:ogc:def:crs:EPSG::31984" } },
"features": [
{ "type": "Feature", "properties": { "ITEM": 1, "NOMENCLATU": "Ponto 01", "X -Longitu": 718698, "Y - Latitu": 8821842, "POLO": "CP", "Sequencial": "Mapa 01", "Status - D": "Pendente", "Status - N": "Pendente", "LAeq DIURN": 0.0, "LAeq NOTUR": 0.0, "LOCAÇÃO": null, "ESTAÇÃO": "E.C. SANTA BÁRBARA", "DATA": null }, "geometry": { "type": "Point", "coordinates": [ 718713.09659450862091, 8821845.807771427556872 ] } },
{ "type": "Feature", "properties": { "ITEM": 2, "NOMENCLATU": "Ponto 02", "X -Longitu": 718911, "Y - Latitu": 8821816, "POLO": "CP", "Sequencial": "Mapa 01", "Status - D": "Pendente", "Status - N": "Pendente", "LAeq DIURN": 0.0, "LAeq NOTUR": 0.0, "LOCAÇÃO": null, "ESTAÇÃO": "E.C. SANTA BÁRBARA", "DATA": null }, "geometry": { "type": "Point", "coordinates": [ 718911.0, 8821816.0 ] } },
{ "type": "Feature", "properties": { "ITEM": 3, "NOMENCLATU": "Ponto 03", "X -Longitu": 718469, "Y - Latitu": 8821729, "POLO": "CP", "Sequencial": "Mapa 01", "Status - D": "Pendente", "Status - N": "Pendente", "LAeq DIURN": 0.0, "LAeq NOTUR": 0.0, "LOCAÇÃO": null, "ESTAÇÃO": "E.C. SANTA BÁRBARA", "DATA": null }, "geometry": { "type": "Point", "coordinates": [ 718473.699927735608071, 8821717.009564744308591 ] } },
{ "type": "Feature", "properties": { "ITEM": 4, "NOMENCLATU": "Ponto 04", "X -Longitu": 718730, "Y - Latitu": 8821672, "POLO": "CP", "Sequencial": "Mapa 01", "Status - D": "Pendente", "Status - N": "Pendente", "LAeq DIURN": 0.0, "LAeq NOTUR": 0.0, "LOCAÇÃO": null, "ESTAÇÃO": "E.C. SANTA BÁRBARA", "DATA": null }, "geometry": { "type": "Point", "coordinates": [ 718737.896249212091789, 8821683.310033956542611 ] } },
{ "type": "Feature", "properties": { "ITEM": 5, "NOMENCLATU": "Ponto 05", "X -Longitu": 718898, "Y - Latitu": 8821588, "POLO": "CP", "Sequencial": "Mapa 01", "Status - D": "Pendente", "Status - N": "Pendente", "LAeq DIURN": 0.0, "LAeq NOTUR": 0.0, "LOCAÇÃO": null, "ESTAÇÃO": "E.C. SANTA BÁRBARA", "DATA": null }, "geometry": { "type": "Point", "coordinates": [ 718892.794092500698753, 8821598.711211869493127 ] } },
{ "type": "Feature", "properties": { "ITEM": 6, "NOMENCLATU": "Ponto 06", "X -Longitu": 722103, "Y - Latitu": 8822727, "POLO": "CP", "Sequencial": "Mapa 02", "Status - D": "Realizado", "Status - N": "Realizado", "LAeq DIURN": 0.0, "LAeq NOTUR": 0.0, "LOCAÇÃO": null, "ESTAÇÃO": "EST. INJET. AGUA IV", "DATA": "26/08/2026" }, "geometry": { "type": "Point", "coordinates": [ 722096.04949213785585, 8822679.546162873506546 ] } },
{ "type": "Feature", "properties": { "ITEM": 7, "NOMENCLATU": "Ponto 07", "X -Longitu": 722160, "Y - Latitu": 8822578, "POLO": "CP", "Sequencial": "Mapa 02", "Status - D": "Realizado", "Status - N": "Realizado", "LAeq DIURN": 0.0, "LAeq NOTUR": 0.0, "LOCAÇÃO": null, "ESTAÇÃO": "EST. INJET. AGUA IV", "DATA": "26/08/2026" }, "geometry": { "type": "Point", "coordinates": [ 722210.047904887702316, 8822634.046796383336186 ] } },
{ "type": "Feature", "properties": { "ITEM": 8, "NOMENCLATU": "Ponto 08", "X -Longitu": 722430, "Y - Latitu": 8822509, "POLO": "CP", "Sequencial": "Mapa 02", "Status - D": "Realizado", "Status - N": "Realizado", "LAeq DIURN": 0.0, "LAeq NOTUR": 0.0, "LOCAÇÃO": null, "ESTAÇÃO": "EST. INJET. AGUA IV", "DATA": "26/08/2026" }, "geometry": { "type": "Point", "coordinates": [ 722410.845109098241664, 8822528.848261103034019 ] } },
{ "type": "Feature", "properties": { "ITEM": 9, "NOMENCLATU": "Ponto 09", "X -Longitu": 722379, "Y - Latitu": 8822730, "POLO": "CP", "Sequencial": "Mapa 02", "Status - D": "Realizado", "Status - N": "Realizado", "LAeq DIURN": 0.0, "LAeq NOTUR": 0.0, "LOCAÇÃO": null, "ESTAÇÃO": "EST. INJET. AGUA IV", "DATA": "26/08/2026" }, "geometry": { "type": "Point", "coordinates": [ 722397.045301238773391, 8822719.545605940744281 ] } },
{ "type": "Feature", "properties": { "ITEM": 10, "NOMENCLATU": "Ponto 10", "X -Longitu": 722207, "Y - Latitu": 8822856, "POLO": "CP", "Sequencial": "Mapa 02", "Status - D": "Realizado", "Status - N": "Realizado", "LAeq DIURN": 0.0, "LAeq NOTUR": 0.0, "LOCAÇÃO": null, "ESTAÇÃO": "EST. INJET. AGUA IV", "DATA": "26/08/2026" }, "geometry": { "type": "Point", "coordinates": [ 722207.0, 8822856.0 ] } },
{ "type": "Feature", "properties": { "ITEM": 11, "NOMENCLATU": "Ponto 11", "X -Longitu": 719775, "Y - Latitu": 8820886, "POLO": "CP", "Sequencial": "Mapa 03", "Status - D": "Pendente", "Status - N": "Pendente", "LAeq DIURN": 0.0, "LAeq NOTUR": 0.0, "LOCAÇÃO": null, "ESTAÇÃO": "E.C.T. CARMOPOLIS", "DATA": "28/08/2026" }, "geometry": { "type": "Point", "coordinates": [ 719775.0, 8820886.0 ] } },
{ "type": "Feature", "properties": { "ITEM": 12, "NOMENCLATU": "Ponto 12", "X -Longitu": 719281, "Y - Latitu": 8820735, "POLO": "CP", "Sequencial": "Mapa 03", "Status - D": "Pendente", "Status - N": "Pendente", "LAeq DIURN": 0.0, "LAeq NOTUR": 0.0, "LOCAÇÃO": null, "ESTAÇÃO": "E.C.T. CARMOPOLIS", "DATA": "28/08/2026" }, "geometry": { "type": "Point", "coordinates": [ 719281.0, 8820735.0 ] } },
{ "type": "Feature", "properties": { "ITEM": 14, "NOMENCLATU": "Ponto 14", "X -Longitu": 720089, "Y - Latitu": 8820199, "POLO": "CP", "Sequencial": "Mapa 03", "Status - D": "Pendente", "Status - N": "Pendente", "LAeq DIURN": 0.0, "LAeq NOTUR": 0.0, "LOCAÇÃO": null, "ESTAÇÃO": "E.C.T. CARMOPOLIS", "DATA": "28/08/2026" }, "geometry": { "type": "Point", "coordinates": [ 720163.277588893775828, 8820379.253335647284985 ] } },
{ "type": "Feature", "properties": { "ITEM": 15, "NOMENCLATU": "Ponto 15", "X -Longitu": 720355, "Y - Latitu": 8820578, "POLO": "CP", "Sequencial": "Mapa 03", "Status - D": "Pendente", "Status - N": "Pendente", "LAeq DIURN": 0.0, "LAeq NOTUR": 0.0, "LOCAÇÃO": null, "ESTAÇÃO": "E.C.T. CARMOPOLIS", "DATA": "28/08/2026" }, "geometry": { "type": "Point", "coordinates": [ 720355.0, 8820578.0 ] } },
{ "type": "Feature", "properties": { "ITEM": 16, "NOMENCLATU": "Ponto 16", "X -Longitu": 723780, "Y - Latitu": 8821416, "POLO": "CP", "Sequencial": "Mapa 04", "Status - D": "Realizado", "Status - N": "Realizado", "LAeq DIURN": 0.0, "LAeq NOTUR": 0.0, "LOCAÇÃO": null, "ESTAÇÃO": "COLETORA MERCÊS", "DATA": "23/08/2026" }, "geometry": { "type": "Point", "coordinates": [ 723780.0, 8821416.0 ] } },
{ "type": "Feature", "properties": { "ITEM": 17, "NOMENCLATU": "Ponto 17", "X -Longitu": 723912, "Y - Latitu": 8821655, "POLO": "CP", "Sequencial": "Mapa 04", "Status - D": "Realizado", "Status - N": "Realizado", "LAeq DIURN": 0.0, "LAeq NOTUR": 0.0, "LOCAÇÃO": null, "ESTAÇÃO": "COLETORA MERCÊS", "DATA": "23/08/2026" }, "geometry": { "type": "Point", "coordinates": [ 723880.574645399930887, 8821668.810235833749175 ] } },
{ "type": "Feature", "properties": { "ITEM": 18, "NOMENCLATU": "Ponto 18", "X -Longitu": 724126, "Y - Latitu": 8821433, "POLO": "CP", "Sequencial": "Mapa 04", "Status - D": "Realizado", "Status - N": "Realizado", "LAeq DIURN": 0.0, "LAeq NOTUR": 0.0, "LOCAÇÃO": "CP-1142", "ESTAÇÃO": "COLETORA MERCÊS", "DATA": "23/08/2026" }, "geometry": { "type": "Point", "coordinates": [ 724127.371209141099826, 8821459.413151368498802 ] } },
{ "type": "Feature", "properties": { "ITEM": 19, "NOMENCLATU": "Ponto 19", "X -Longitu": 724330, "Y - Latitu": 8821698, "POLO": "CP", "Sequencial": "Mapa 04", "Status - D": "Realizado", "Status - N": "Realizado", "LAeq DIURN": 0.0, "LAeq NOTUR": 0.0, "LOCAÇÃO": "CP-1817", "ESTAÇÃO": "COLETORA MERCÊS", "DATA": "23/08/2026" }, "geometry": { "type": "Point", "coordinates": [ 724330.0, 8821698.0 ] } },
{ "type": "Feature", "properties": { "ITEM": 20, "NOMENCLATU": "Ponto 20", "X -Longitu": 723966, "Y - Latitu": 8821262, "POLO": "CP", "Sequencial": "Mapa 04", "Status - D": "Realizado", "Status - N": "Realizado", "LAeq DIURN": 0.0, "LAeq NOTUR": 0.0, "LOCAÇÃO": "8-CP-1544", "ESTAÇÃO": "COLETORA MERCÊS", "DATA": "23/08/2026" }, "geometry": { "type": "Point", "coordinates": [ 723966.0, 8821262.0 ] } },
{ "type": "Feature", "properties": { "ITEM": 21, "NOMENCLATU": "Ponto 21", "X -Longitu": 721887, "Y - Latitu": 8822506, "POLO": "CP", "Sequencial": "Mapa 05", "Status - D": "Pendente", "Status - N": "Pendente", "LAeq DIURN": 0.0, "LAeq NOTUR": 0.0, "LOCAÇÃO": "CP-452", "ESTAÇÃO": "E.C. OITEIRINHOS I", "DATA": null }, "geometry": { "type": "Point", "coordinates": [ 721873.252594239660539, 8822528.248269459232688 ] } },
{ "type": "Feature", "properties": { "ITEM": 22, "NOMENCLATU": "Ponto 22", "X -Longitu": 722103, "Y - Latitu": 8822352, "POLO": "CP", "Sequencial": "Mapa 05", "Status - D": "Pendente", "Status - N": "Pendente", "LAeq DIURN": 0.0, "LAeq NOTUR": 0.0, "LOCAÇÃO": "7-CP-1246", "ESTAÇÃO": "E.C. OITEIRINHOS I", "DATA": null }, "geometry": { "type": "Point", "coordinates": [ 722090.449570108787157, 8822357.450647553429008 ] } },
{ "type": "Feature", "properties": { "ITEM": 23, "NOMENCLATU": "Ponto 23", "X -Longitu": 721812, "Y - Latitu": 8822304, "POLO": "CP", "Sequencial": "Mapa 05", "Status - D": "Pendente", "Status - N": "Pendente", "LAeq DIURN": 0.0, "LAeq NOTUR": 0.0, "LOCAÇÃO": "7-CP-0467", "ESTAÇÃO": "E.C. OITEIRINHOS I", "DATA": null }, "geometry": { "type": "Point", "coordinates": [ 721812.0, 8822304.0 ] } },
{ "type": "Feature", "properties": { "ITEM": 24, "NOMENCLATU": "Ponto 24", "X -Longitu": 722023, "Y - Latitu": 8822220, "POLO": "CP", "Sequencial": "Mapa 05", "Status - D": "Pendente", "Status - N": "Pendente", "LAeq DIURN": 0.0, "LAeq NOTUR": 0.0, "LOCAÇÃO": null, "ESTAÇÃO": "E.C. OITEIRINHOS I", "DATA": null }, "geometry": { "type": "Point", "coordinates": [ 722034.450349811231717, 8822229.052435297518969 ] } },
{ "type": "Feature", "properties": { "ITEM": 25, "NOMENCLATU": "Ponto 25", "X -Longitu": 721832, "Y - Latitu": 8822082, "POLO": "CP", "Sequencial": "Mapa 05", "Status - D": "Pendente", "Status - N": "Pendente", "LAeq DIURN": 0.0, "LAeq NOTUR": 0.0, "LOCAÇÃO": null, "ESTAÇÃO": "E.C. OITEIRINHOS II", "DATA": null }, "geometry": { "type": "Point", "coordinates": [ 721832.0, 8822082.0 ] } },
{ "type": "Feature", "properties": { "ITEM": 26, "NOMENCLATU": "Ponto 26", "X -Longitu": 722502, "Y - Latitu": 8820810, "POLO": "CP", "Sequencial": "Mapa 06", "Status - D": "Realizado", "Status - N": "Realizado", "LAeq DIURN": 0.0, "LAeq NOTUR": 0.0, "LOCAÇÃO": null, "ESTAÇÃO": "E.C. PANELAS", "DATA": "23/08/2026" }, "geometry": { "type": "Point", "coordinates": [ 722514.943659691954963, 8820813.122149972245097 ] } },
{ "type": "Feature", "properties": { "ITEM": 27, "NOMENCLATU": "Ponto 27", "X -Longitu": 722527, "Y - Latitu": 8821045, "POLO": "CP", "Sequencial": "Mapa 06", "Status - D": "Realizado", "Status - N": "Realizado", "LAeq DIURN": 0.0, "LAeq NOTUR": 0.0, "LOCAÇÃO": null, "ESTAÇÃO": "E.C. PANELAS", "DATA": "23/08/2026" }, "geometry": { "type": "Point", "coordinates": [ 722523.34354273614008, 8821056.418762443587184 ] } },
{ "type": "Feature", "properties": { "ITEM": 28, "NOMENCLATU": "Ponto 28", "X -Longitu": 722772, "Y - Latitu": 8821026, "POLO": "CP", "Sequencial": "Mapa 06", "Status - D": "Realizado", "Status - N": "Realizado", "LAeq DIURN": 0.0, "LAeq NOTUR": 0.0, "LOCAÇÃO": null, "ESTAÇÃO": "E.C. PANELAS", "DATA": "23/08/2026" }, "geometry": { "type": "Point", "coordinates": [ 722750.490380069008097, 8821031.919103559106588 ] } },
{ "type": "Feature", "properties": { "ITEM": 29, "NOMENCLATU": "Ponto 29", "X -Longitu": 722719, "Y - Latitu": 8820771, "POLO": "CP", "Sequencial": "Mapa 06", "Status - D": "Realizado", "Status - N": "Realizado", "LAeq DIURN": 0.0, "LAeq NOTUR": 0.0, "LOCAÇÃO": null, "ESTAÇÃO": "E.C. PANELAS", "DATA": "23/08/2026" }, "geometry": { "type": "Point", "coordinates": [ 722729.140677331015468, 8820792.422438183799386 ] } },
{ "type": "Feature", "properties": { "ITEM": 30, "NOMENCLATU": "Ponto 30", "X -Longitu": 722650, "Y - Latitu": 8820614, "POLO": "CP", "Sequencial": "Mapa 06", "Status - D": "Realizado", "Status - N": "Realizado", "LAeq DIURN": 0.0, "LAeq NOTUR": 0.0, "LOCAÇÃO": null, "ESTAÇÃO": "E.C. PANELAS", "DATA": "23/08/2026" }, "geometry": { "type": "Point", "coordinates": [ 722666.841544749331661, 8820600.525110058486462 ] } },
{ "type": "Feature", "properties": { "ITEM": 31, "NOMENCLATU": "Ponto 31", "X -Longitu": 721530, "Y - Latitu": 8821992, "POLO": "CP", "Sequencial": "Mapa 07", "Status - D": "Pendente", "Status - N": "Pendente", "LAeq DIURN": 0.0, "LAeq NOTUR": 0.0, "LOCAÇÃO": null, "ESTAÇÃO": "E.C. OITEIRINHOS II", "DATA": null }, "geometry": { "type": "Point", "coordinates": [ 721530.0, 8821992.0 ] } },
{ "type": "Feature", "properties": { "ITEM": 32, "NOMENCLATU": "Ponto 32", "X -Longitu": 721258, "Y - Latitu": 8822004, "POLO": "CP", "Sequencial": "Mapa 07", "Status - D": "Pendente", "Status - N": "Pendente", "LAeq DIURN": 0.0, "LAeq NOTUR": 0.0, "LOCAÇÃO": null, "ESTAÇÃO": "E.C. OITEIRINHOS II", "DATA": null }, "geometry": { "type": "Point", "coordinates": [ 721258.0, 8822004.0 ] } },
{ "type": "Feature", "properties": { "ITEM": 33, "NOMENCLATU": "Ponto 33", "X -Longitu": 721546, "Y - Latitu": 8822221, "POLO": "CP", "Sequencial": "Mapa 07", "Status - D": "Pendente", "Status - N": "Pendente", "LAeq DIURN": 0.0, "LAeq NOTUR": 0.0, "LOCAÇÃO": null, "ESTAÇÃO": "E.C. OITEIRINHOS II", "DATA": null }, "geometry": { "type": "Point", "coordinates": [ 721609.856261624605395, 8822164.253337528556585 ] } },
{ "type": "Feature", "properties": { "ITEM": 34, "NOMENCLATU": "Ponto 34", "X -Longitu": 721373, "Y - Latitu": 8822236, "POLO": "CP", "Sequencial": "Mapa 07", "Status - D": "Pendente", "Status - N": "Pendente", "LAeq DIURN": 0.0, "LAeq NOTUR": 0.0, "LOCAÇÃO": null, "ESTAÇÃO": "E.C. OITEIRINHOS II", "DATA": null }, "geometry": { "type": "Point", "coordinates": [ 721373.859547512605786, 8822259.452012032270432 ] } },
{ "type": "Feature", "properties": { "ITEM": 35, "NOMENCLATU": "Ponto 35", "X -Longitu": 721763, "Y - Latitu": 8822051, "POLO": "CP", "Sequencial": "Mapa 07", "Status - D": "Pendente", "Status - N": "Pendente", "LAeq DIURN": 0.0, "LAeq NOTUR": 0.0, "LOCAÇÃO": null, "ESTAÇÃO": "E.C. OITEIRINHOS II", "DATA": null }, "geometry": { "type": "Point", "coordinates": [ 721763.0, 8822051.0 ] } },
{ "type": "Feature", "properties": { "ITEM": 36, "NOMENCLATU": "Ponto 36", "X -Longitu": 719152, "Y - Latitu": 8821516, "POLO": "CP", "Sequencial": "Mapa 08", "Status - D": "Pendente", "Status - N": "Pendente", "LAeq DIURN": 0.0, "LAeq NOTUR": 0.0, "LOCAÇÃO": null, "ESTAÇÃO": "E.C. SANTA BÁRBARA", "DATA": null }, "geometry": { "type": "Point", "coordinates": [ 719152.0, 8821516.0 ] } },
{ "type": "Feature", "properties": { "ITEM": 37, "NOMENCLATU": "Ponto 37", "X -Longitu": 718973, "Y - Latitu": 8821451, "POLO": "CP", "Sequencial": "Mapa 08", "Status - D": "Pendente", "Status - N": "Pendente", "LAeq DIURN": 0.0, "LAeq NOTUR": 0.0, "LOCAÇÃO": "CP-1654", "ESTAÇÃO": "E.C. SANTA BÁRBARA", "DATA": null }, "geometry": { "type": "Point", "coordinates": [ 718948.1933211524738, 8821402.913938045501709 ] } },
{ "type": "Feature", "properties": { "ITEM": 38, "NOMENCLATU": "Ponto 38", "X -Longitu": 718937, "Y - Latitu": 8821625, "POLO": "CP", "Sequencial": "Mapa 08", "Status - D": "Pendente", "Status - N": "Pendente", "LAeq DIURN": 0.0, "LAeq NOTUR": 0.0, "LOCAÇÃO": "CP-1555", "ESTAÇÃO": "E.C. SANTA BÁRBARA", "DATA": null }, "geometry": { "type": "Point", "coordinates": [ 718952.393262674682774, 8821645.510560259222984 ] } },
{ "type": "Feature", "properties": { "ITEM": 39, "NOMENCLATU": "Ponto 39", "X -Longitu": 719035, "Y - Latitu": 8821668, "POLO": "CP", "Sequencial": "Mapa 08", "Status - D": "Pendente", "Status - N": "Pendente", "LAeq DIURN": 0.0, "LAeq NOTUR": 0.0, "LOCAÇÃO": null, "ESTAÇÃO": "E.C. SANTA BÁRBARA", "DATA": null }, "geometry": { "type": "Point", "coordinates": [ 719078.791502775624394, 8821664.710292933508754 ] } },
{ "type": "Feature", "properties": { "ITEM": 40, "NOMENCLATU": "Ponto 40", "X -Longitu": 719198, "Y - Latitu": 8821692, "POLO": "CP", "Sequencial": "Mapa 08", "Status - D": "Pendente", "Status - N": "Pendente", "LAeq DIURN": 0.0, "LAeq NOTUR": 0.0, "LOCAÇÃO": null, "ESTAÇÃO": "E.C. SANTA BÁRBARA", "DATA": null }, "geometry": { "type": "Point", "coordinates": [ 719196.789859831682406, 8821693.309894729405642 ] } },
{ "type": "Feature", "properties": { "ITEM": 41, "NOMENCLATU": "Ponto 41", "X -Longitu": 719308, "Y - Latitu": 8821738, "POLO": "CP", "Sequencial": "Mapa 08", "Status - D": "Pendente", "Status - N": "Pendente", "LAeq DIURN": 0.0, "LAeq NOTUR": 0.0, "LOCAÇÃO": null, "ESTAÇÃO": "E.C. SANTA BÁRBARA", "DATA": null }, "geometry": { "type": "Point", "coordinates": [ 719279.988701416994445, 8821725.609445005655289 ] } },
{ "type": "Feature", "properties": { "ITEM": 42, "NOMENCLATU": "Ponto 42", "X -Longitu": 719256, "Y - Latitu": 8821618, "POLO": "CP", "Sequencial": "Mapa 08", "Status - D": "Pendente", "Status - N": "Pendente", "LAeq DIURN": 0.0, "LAeq NOTUR": 0.0, "LOCAÇÃO": null, "ESTAÇÃO": "E.C. SANTA BÁRBARA", "DATA": null }, "geometry": { "type": "Point", "coordinates": [ 719248.889134430326521, 8821625.310841510072351 ] } },
{ "type": "Feature", "properties": { "ITEM": 43, "NOMENCLATU": "Ponto 43", "X -Longitu": 720517, "Y - Latitu": 8822882, "POLO": "CP", "Sequencial": "Mapa 09", "Status - D": "Pendente", "Status - N": "Pendente", "LAeq DIURN": 0.0, "LAeq NOTUR": 0.0, "LOCAÇÃO": null, "ESTAÇÃO": "E.C. STO ANTONIO", "DATA": "28/08/2026" }, "geometry": { "type": "Point", "coordinates": [ 720517.0, 8822882.0 ] } },
{ "type": "Feature", "properties": { "ITEM": 44, "NOMENCLATU": "Ponto 44", "X -Longitu": 720499, "Y - Latitu": 8822798, "POLO": "CP", "Sequencial": "Mapa 09", "Status - D": "Pendente", "Status - N": "Pendente", "LAeq DIURN": 0.0, "LAeq NOTUR": 0.0, "LOCAÇÃO": null, "ESTAÇÃO": "E.C. STO ANTONIO", "DATA": "28/08/2026" }, "geometry": { "type": "Point", "coordinates": [ 720499.0, 8822798.0 ] } },
{ "type": "Feature", "properties": { "ITEM": 45, "NOMENCLATU": "Ponto 45", "X -Longitu": 720533, "Y - Latitu": 8823044, "POLO": "CP", "Sequencial": "Mapa 09", "Status - D": "Pendente", "Status - N": "Pendente", "LAeq DIURN": 0.0, "LAeq NOTUR": 0.0, "LOCAÇÃO": null, "ESTAÇÃO": "E.C. STO ANTONIO", "DATA": "28/08/2026" }, "geometry": { "type": "Point", "coordinates": [ 720533.0, 8823044.0 ] } },
{ "type": "Feature", "properties": { "ITEM": 46, "NOMENCLATU": "Ponto 46", "X -Longitu": 720553, "Y - Latitu": 8823192, "POLO": "CP", "Sequencial": "Mapa 09", "Status - D": "Pendente", "Status - N": "Pendente", "LAeq DIURN": 0.0, "LAeq NOTUR": 0.0, "LOCAÇÃO": null, "ESTAÇÃO": "E.C. STO ANTONIO", "DATA": "28/08/2026" }, "geometry": { "type": "Point", "coordinates": [ 720553.0, 8823192.0 ] } },
{ "type": "Feature", "properties": { "ITEM": 47, "NOMENCLATU": "Ponto 47", "X -Longitu": 720857, "Y - Latitu": 8823041, "POLO": "CP", "Sequencial": "Mapa 09", "Status - D": "Pendente", "Status - N": "Pendente", "LAeq DIURN": 0.0, "LAeq NOTUR": 0.0, "LOCAÇÃO": null, "ESTAÇÃO": "E.C. STO ANTONIO", "DATA": "28/08/2026" }, "geometry": { "type": "Point", "coordinates": [ 720857.0, 8823041.0 ] } },
{ "type": "Feature", "properties": { "ITEM": 48, "NOMENCLATU": "Ponto 48", "X -Longitu": 720653, "Y - Latitu": 8822754, "POLO": "CP", "Sequencial": "Mapa 09", "Status - D": "Pendente", "Status - N": "Pendente", "LAeq DIURN": 0.0, "LAeq NOTUR": 0.0, "LOCAÇÃO": null, "ESTAÇÃO": "E.C. STO ANTONIO", "DATA": "28/08/2026" }, "geometry": { "type": "Point", "coordinates": [ 720653.0, 8822754.0 ] } },
{ "type": "Feature", "properties": { "ITEM": 49, "NOMENCLATU": "Ponto 49", "X -Longitu": 722450, "Y - Latitu": 8822676, "POLO": "CP", "Sequencial": "Mapa 10", "Status - D": "Realizado", "Status - N": "Realizado", "LAeq DIURN": 0.0, "LAeq NOTUR": 0.0, "LOCAÇÃO": null, "ESTAÇÃO": "EST. INJET. AGUA IV", "DATA": "26/08/2026" }, "geometry": { "type": "Point", "coordinates": [ 722483.84409270028118, 8822656.546483103185892 ] } },
{ "type": "Feature", "properties": { "ITEM": 50, "NOMENCLATU": "Ponto 50", "X -Longitu": 722514, "Y - Latitu": 8822756, "POLO": "CP", "Sequencial": "Mapa 10", "Status - D": "Realizado", "Status - N": "Realizado", "LAeq DIURN": 0.0, "LAeq NOTUR": 0.0, "LOCAÇÃO": null, "ESTAÇÃO": "EST. INJET. AGUA IV", "DATA": "26/08/2026" }, "geometry": { "type": "Point", "coordinates": [ 722504.843800312140957, 8822742.34528848901391 ] } },
{ "type": "Feature", "properties": { "ITEM": 51, "NOMENCLATU": "Ponto 51", "X -Longitu": 722655, "Y - Latitu": 8822739, "POLO": "CP", "Sequencial": "Mapa 10", "Status - D": "Realizado", "Status - N": "Realizado", "LAeq DIURN": 0.0, "LAeq NOTUR": 0.0, "LOCAÇÃO": null, "ESTAÇÃO": "EST. INJET. AGUA IV", "DATA": "26/08/2026" }, "geometry": { "type": "Point", "coordinates": [ 722655.0, 8822739.0 ] } },
{ "type": "Feature", "properties": { "ITEM": 52, "NOMENCLATU": "Ponto 52", "X -Longitu": 722620, "Y - Latitu": 8822595, "POLO": "CP", "Sequencial": "Mapa 10", "Status - D": "Realizado", "Status - N": "Realizado", "LAeq DIURN": 0.0, "LAeq NOTUR": 0.0, "LOCAÇÃO": null, "ESTAÇÃO": "EST. INJET. AGUA IV", "DATA": "26/08/2026" }, "geometry": { "type": "Point", "coordinates": [ 722622.242165722302161, 8822588.847425708547235 ] } },
{ "type": "Feature", "properties": { "ITEM": 53, "NOMENCLATU": "Ponto 53", "X -Longitu": 724086, "Y - Latitu": 8822798, "POLO": "CP", "Sequencial": "Mapa 11", "Status - D": "Realizado", "Status - N": "Realizado", "LAeq DIURN": 0.0, "LAeq NOTUR": 0.0, "LOCAÇÃO": null, "ESTAÇÃO": "INJETORA DE VAPOR IV", "DATA": "26/08/2026" }, "geometry": { "type": "Point", "coordinates": [ 724075.671928972937167, 8822811.494325729086995 ] } },
{ "type": "Feature", "properties": { "ITEM": 54, "NOMENCLATU": "Ponto 54", "X -Longitu": 724196, "Y - Latitu": 8822773, "POLO": "CP", "Sequencial": "Mapa 11", "Status - D": "Realizado", "Status - N": "Realizado", "LAeq DIURN": 0.0, "LAeq NOTUR": 0.0, "LOCAÇÃO": null, "ESTAÇÃO": "INJETORA DE VAPOR IV", "DATA": "26/08/2026" }, "geometry": { "type": "Point", "coordinates": [ 724180.070475385291502, 8822778.494785197079182 ] } },
{ "type": "Feature", "properties": { "ITEM": 55, "NOMENCLATU": "Ponto 55", "X -Longitu": 724167, "Y - Latitu": 8822850, "POLO": "CP", "Sequencial": "Mapa 11", "Status - D": "Realizado", "Status - N": "Realizado", "LAeq DIURN": 0.0, "LAeq NOTUR": 0.0, "LOCAÇÃO": null, "ESTAÇÃO": "INJETORA DE VAPOR IV", "DATA": "26/08/2026" }, "geometry": { "type": "Point", "coordinates": [ 724154.670829035923816, 8822866.893554382026196 ] } },
{ "type": "Feature", "properties": { "ITEM": 56, "NOMENCLATU": "Ponto 56", "X -Longitu": 724219, "Y - Latitu": 8822658, "POLO": "CP", "Sequencial": "Mapa 11", "Status - D": "Realizado", "Status - N": "Realizado", "LAeq DIURN": 0.0, "LAeq NOTUR": 0.0, "LOCAÇÃO": null, "ESTAÇÃO": "INJETORA DE VAPOR IV", "DATA": "24/08/2026" }, "geometry": { "type": "Point", "coordinates": [ 724256.059605390764773, 8822626.753132624551654 ] } },
{ "type": "Feature", "properties": { "ITEM": 57, "NOMENCLATU": "Ponto 57", "X -Longitu": 724239, "Y - Latitu": 8823780, "POLO": "CP", "Sequencial": "Mapa 12", "Status - D": "Pendente", "Status - N": "Pendente", "LAeq DIURN": 0.0, "LAeq NOTUR": 0.0, "LOCAÇÃO": null, "ESTAÇÃO": "UTRF", "DATA": null }, "geometry": { "type": "Point", "coordinates": [ 724239.469648343976587, 8823754.18120027706027 ] } },
{ "type": "Feature", "properties": { "ITEM": 58, "NOMENCLATU": "Ponto 58", "X -Longitu": 724068, "Y - Latitu": 8823684, "POLO": "CP", "Sequencial": "Mapa 12", "Status - D": "Pendente", "Status - N": "Pendente", "LAeq DIURN": 0.0, "LAeq NOTUR": 0.0, "LOCAÇÃO": null, "ESTAÇÃO": "UTRF", "DATA": null }, "geometry": { "type": "Point", "coordinates": [ 724071.071993019781075, 8823686.382144274190068 ] } },
{ "type": "Feature", "properties": { "ITEM": 59, "NOMENCLATU": "Ponto 59", "X -Longitu": 724149, "Y - Latitu": 8823648, "POLO": "CP", "Sequencial": "Mapa 12", "Status - D": "Pendente", "Status - N": "Pendente", "LAeq DIURN": 0.0, "LAeq NOTUR": 0.0, "LOCAÇÃO": null, "ESTAÇÃO": "UTRF", "DATA": null }, "geometry": { "type": "Point", "coordinates": [ 724149.0, 8823648.0 ] } },
{ "type": "Feature", "properties": { "ITEM": 60, "NOMENCLATU": "Ponto 60", "X -Longitu": 724266, "Y - Latitu": 8823666, "POLO": "CP", "Sequencial": "Mapa 12", "Status - D": "Pendente", "Status - N": "Pendente", "LAeq DIURN": 0.0, "LAeq NOTUR": 0.0, "LOCAÇÃO": null, "ESTAÇÃO": "UTRF", "DATA": null }, "geometry": { "type": "Point", "coordinates": [ 724260.269358740304597, 8823659.382520202547312 ] } },
{ "type": "Feature", "properties": { "ITEM": 61, "NOMENCLATU": "Ponto 61", "X -Longitu": 725725, "Y - Latitu": 8822790, "POLO": "CP", "Sequencial": "Mapa 13", "Status - D": "Realizado", "Status - N": "Realizado", "LAeq DIURN": 0.0, "LAeq NOTUR": 0.0, "LOCAÇÃO": null, "ESTAÇÃO": "E.C. ENTRE RIOS", "DATA": "24/08/2026" }, "geometry": { "type": "Point", "coordinates": [ 725676.599638540297747, 8822794.794558241963387 ] } },
{ "type": "Feature", "properties": { "ITEM": 62, "NOMENCLATU": "Ponto 62", "X -Longitu": 725497, "Y - Latitu": 8822772, "POLO": "CP", "Sequencial": "Mapa 13", "Status - D": "Realizado", "Status - N": "Realizado", "LAeq DIURN": 0.0, "LAeq NOTUR": 0.0, "LOCAÇÃO": null, "ESTAÇÃO": "E.C. ENTRE RIOS", "DATA": "24/08/2026" }, "geometry": { "type": "Point", "coordinates": [ 725504.202038909075782, 8822787.594658488407731 ] } },
{ "type": "Feature", "properties": { "ITEM": 63, "NOMENCLATU": "Ponto 63", "X -Longitu": 725515, "Y - Latitu": 8822557, "POLO": "CP", "Sequencial": "Mapa 13", "Status - D": "Realizado", "Status - N": "Realizado", "LAeq DIURN": 0.0, "LAeq NOTUR": 0.0, "LOCAÇÃO": null, "ESTAÇÃO": "E.C. ENTRE RIOS", "DATA": "24/08/2026" }, "geometry": { "type": "Point", "coordinates": [ 725502.202066755504347, 8822565.597749449312687 ] } },
{ "type": "Feature", "properties": { "ITEM": 64, "NOMENCLATU": "Ponto 64", "X -Longitu": 725687, "Y - Latitu": 8822545, "POLO": "CP", "Sequencial": "Mapa 13", "Status - D": "Realizado", "Status - N": "Realizado", "LAeq DIURN": 0.0, "LAeq NOTUR": 0.0, "LOCAÇÃO": null, "ESTAÇÃO": "E.C. ENTRE RIOS", "DATA": "24/08/2026" }, "geometry": { "type": "Point", "coordinates": [ 725707.799204134615138, 8822544.798039052635431 ] } },
{ "type": "Feature", "properties": { "ITEM": 65, "NOMENCLATU": "Ponto 65", "X -Longitu": 725318, "Y - Latitu": 8822777, "POLO": "CP", "Sequencial": "Mapa 13", "Status - D": "Realizado", "Status - N": "Realizado", "LAeq DIURN": 0.0, "LAeq NOTUR": 0.0, "LOCAÇÃO": null, "ESTAÇÃO": "E.C. ENTRE RIOS", "DATA": "24/08/2026" }, "geometry": { "type": "Point", "coordinates": [ 725318.0, 8822777.0 ] } },
{ "type": "Feature", "properties": { "ITEM": 66, "NOMENCLATU": "Ponto 66", "X -Longitu": 724013, "Y - Latitu": 8822606, "POLO": "CP", "Sequencial": "Mapa 14", "Status - D": "Realizado", "Status - N": "Realizado", "LAeq DIURN": 0.0, "LAeq NOTUR": 0.0, "LOCAÇÃO": null, "ESTAÇÃO": "INJETORA DE VAPOR IV", "DATA": "24/08/2026" }, "geometry": { "type": "Point", "coordinates": [ 724028.672583365929313, 8822620.69698228687048 ] } },
{ "type": "Feature", "properties": { "ITEM": 67, "NOMENCLATU": "Ponto 67", "X -Longitu": 724219, "Y - Latitu": 8822664, "POLO": "CP", "Sequencial": "Mapa 14", "Status - D": "Realizado", "Status - N": "Realizado", "LAeq DIURN": 0.0, "LAeq NOTUR": 0.0, "LOCAÇÃO": null, "ESTAÇÃO": "INJETORA DE VAPOR IV", "DATA": "24/08/2026" }, "geometry": { "type": "Point", "coordinates": [ 724224.069862762116827, 8822667.496330678462982 ] } },
{ "type": "Feature", "properties": { "ITEM": 68, "NOMENCLATU": "Ponto 68", "X -Longitu": 723909, "Y - Latitu": 8822745, "POLO": "CP", "Sequencial": "Mapa 14", "Status - D": "Realizado", "Status - N": "Realizado", "LAeq DIURN": 0.0, "LAeq NOTUR": 0.0, "LOCAÇÃO": null, "ESTAÇÃO": "INJETORA DE VAPOR IV", "DATA": "26/08/2026" }, "geometry": { "type": "Point", "coordinates": [ 723909.0, 8822745.0 ] } },
{ "type": "Feature", "properties": { "ITEM": 69, "NOMENCLATU": "Ponto 69", "X -Longitu": 724050, "Y - Latitu": 8822846, "POLO": "CP", "Sequencial": "Mapa 14", "Status - D": "Realizado", "Status - N": "Pendente", "LAeq DIURN": 0.0, "LAeq NOTUR": 0.0, "LOCAÇÃO": null, "ESTAÇÃO": "INJETORA DE VAPOR IV", "DATA": "26/08/2026" }, "geometry": { "type": "Point", "coordinates": [ 724048.672304900945164, 8822865.09357944317162 ] } },
{ "type": "Feature", "properties": { "ITEM": 70, "NOMENCLATU": "Ponto 70", "X -Longitu": 724151, "Y - Latitu": 8822600, "POLO": "CP", "Sequencial": "Mapa 14", "Status - D": "Realizado", "Status - N": "Realizado", "LAeq DIURN": 0.0, "LAeq NOTUR": 0.0, "LOCAÇÃO": null, "ESTAÇÃO": "INJETORA DE VAPOR IV", "DATA": "24/08/2026" }, "geometry": { "type": "Point", "coordinates": [ 724151.0, 8822600.0 ] } },
{ "type": "Feature", "properties": { "ITEM": 71, "NOMENCLATU": "Ponto 71", "X -Longitu": 724928, "Y - Latitu": 8824059, "POLO": "CP", "Sequencial": "Mapa 15", "Status - D": "Realizado", "Status - N": "Realizado", "LAeq DIURN": 0.0, "LAeq NOTUR": 0.0, "LOCAÇÃO": null, "ESTAÇÃO": "E.C. MAGALHAES", "DATA": "24/08/2026" }, "geometry": { "type": "Point", "coordinates": [ 724928.0, 8824059.0 ] } },
{ "type": "Feature", "properties": { "ITEM": 72, "NOMENCLATU": "Ponto 72", "X -Longitu": 725128, "Y - Latitu": 8823909, "POLO": "CP", "Sequencial": "Mapa 15", "Status - D": "Pendente", "Status - N": "Pendente", "LAeq DIURN": null, "LAeq NOTUR": null, "LOCAÇÃO": null, "ESTAÇÃO": "E.C. MAGALHAES", "DATA": null }, "geometry": { "type": "Point", "coordinates": [ 725134.607184943510219, 8823912.578994832932949 ] } },
{ "type": "Feature", "properties": { "ITEM": 73, "NOMENCLATU": "Ponto 73", "X -Longitu": 724822, "Y - Latitu": 8823994, "POLO": "CP", "Sequencial": "Mapa 15", "Status - D": "Realizado", "Status - N": "Realizado", "LAeq DIURN": 0.0, "LAeq NOTUR": 0.0, "LOCAÇÃO": null, "ESTAÇÃO": "E.C. MAGALHAES", "DATA": "24/08/2026" }, "geometry": { "type": "Point", "coordinates": [ 724801.261826260364614, 8823971.778170576319098 ] } },
{ "type": "Feature", "properties": { "ITEM": 74, "NOMENCLATU": "Ponto 74", "X -Longitu": 725070, "Y - Latitu": 8823848, "POLO": "CP", "Sequencial": "Mapa 15", "Status - D": "Realizado", "Status - N": "Realizado", "LAeq DIURN": 0.0, "LAeq NOTUR": 0.0, "LOCAÇÃO": null, "ESTAÇÃO": "E.C. MAGALHAES", "DATA": "24/08/2026" }, "geometry": { "type": "Point", "coordinates": [ 725085.207872751983814, 8823852.379833009094 ] } },
{ "type": "Feature", "properties": { "ITEM": 75, "NOMENCLATU": "Ponto 75", "X -Longitu": 725069, "Y - Latitu": 8823981, "POLO": "CP", "Sequencial": "Mapa 15", "Status - D": "Realizado", "Status - N": "Realizado", "LAeq DIURN": 0.0, "LAeq NOTUR": 0.0, "LOCAÇÃO": null, "ESTAÇÃO": "E.C. MAGALHAES", "DATA": "24/08/2026" }, "geometry": { "type": "Point", "coordinates": [ 725076.058000150253065, 8823983.37800906598568 ] } },
{ "type": "Feature", "properties": { "ITEM": 76, "NOMENCLATU": "Ponto 76", "X -Longitu": 724985, "Y - Latitu": 8823852, "POLO": "CP", "Sequencial": "Mapa 15", "Status - D": "Realizado", "Status - N": "Realizado", "LAeq DIURN": 0.0, "LAeq NOTUR": 0.0, "LOCAÇÃO": null, "ESTAÇÃO": "E.C. MAGALHAES", "DATA": "24/08/2026" }, "geometry": { "type": "Point", "coordinates": [ 724986.859242104226723, 8823856.97976896725595 ] } },
{ "type": "Feature", "properties": { "ITEM": 77, "NOMENCLATU": "Ponto 77", "X -Longitu": 721807, "Y - Latitu": 8826759, "POLO": "Fora do Polo", "Sequencial": "Mapa 16", "Status - D": "Pendente", "Status - N": "Pendente", "LAeq DIURN": null, "LAeq NOTUR": 0.0, "LOCAÇÃO": null, "ESTAÇÃO": "PQ. TUBOS SAQUINHO", "DATA": null }, "geometry": { "type": "Point", "coordinates": [ 721798.58198060374707, 8826765.729712570086122 ] } },
{ "type": "Feature", "properties": { "ITEM": 78, "NOMENCLATU": "Ponto 78", "X -Longitu": 721488, "Y - Latitu": 8826882, "POLO": "Fora do Polo", "Sequencial": "Mapa 16", "Status - D": "Pendente", "Status - N": "Pendente", "LAeq DIURN": null, "LAeq NOTUR": 0.0, "LOCAÇÃO": null, "ESTAÇÃO": "PQ. TUBOS SAQUINHO", "DATA": null }, "geometry": { "type": "Point", "coordinates": [ 721731.68795702944044, 8826895.549470184370875 ] } },
{ "type": "Feature", "properties": { "ITEM": 79, "NOMENCLATU": "Ponto 79", "X -Longitu": 721527, "Y - Latitu": 8827308, "POLO": "Fora do Polo", "Sequencial": "Mapa 16", "Status - D": "Pendente", "Status - N": "Pendente", "LAeq DIURN": null, "LAeq NOTUR": null, "LOCAÇÃO": null, "ESTAÇÃO": "PQ. TUBOS SAQUINHO", "DATA": null }, "geometry": { "type": "Point", "coordinates": [ 721527.0, 8827308.0 ] } },
{ "type": "Feature", "properties": { "ITEM": 80, "NOMENCLATU": "Ponto 80", "X -Longitu": 721527, "Y - Latitu": 8827723, "POLO": "Fora do Polo", "Sequencial": "Mapa 16", "Status - D": "Pendente", "Status - N": "Pendente", "LAeq DIURN": null, "LAeq NOTUR": 0.0, "LOCAÇÃO": null, "ESTAÇÃO": "PQ. TUBOS SAQUINHO", "DATA": null }, "geometry": { "type": "Point", "coordinates": [ 721817.006182012031786, 8827360.973142681643367 ] } },
{ "type": "Feature", "properties": { "ITEM": 81, "NOMENCLATU": "Ponto 81", "X -Longitu": 721995, "Y - Latitu": 8827377, "POLO": "Fora do Polo", "Sequencial": "Mapa 16", "Status - D": "Pendente", "Status - N": "Pendente", "LAeq DIURN": null, "LAeq NOTUR": 0.0, "LOCAÇÃO": null, "ESTAÇÃO": "PQ. TUBOS SAQUINHO", "DATA": null }, "geometry": { "type": "Point", "coordinates": [ 721992.744718520902097, 8827385.066329136490822 ] } },
{ "type": "Feature", "properties": { "ITEM": 82, "NOMENCLATU": "Ponto 82", "X -Longitu": 723832, "Y - Latitu": 8822039, "POLO": "CP", "Sequencial": "Mapa 17", "Status - D": "Realizado", "Status - N": "Realizado", "LAeq DIURN": 0.0, "LAeq NOTUR": 0.0, "LOCAÇÃO": null, "ESTAÇÃO": "INJETORA DE VAPOR V", "DATA": "23/08/2026" }, "geometry": { "type": "Point", "coordinates": [ 723842.075181445339695, 8822042.105038288980722 ] } },
{ "type": "Feature", "properties": { "ITEM": 83, "NOMENCLATU": "Ponto 83", "X -Longitu": 723645, "Y - Latitu": 8822038, "POLO": "CP", "Sequencial": "Mapa 17", "Status - D": "Realizado", "Status - N": "Realizado", "LAeq DIURN": 0.0, "LAeq NOTUR": 0.0, "LOCAÇÃO": null, "ESTAÇÃO": "INJETORA DE VAPOR V", "DATA": "23/08/2026" }, "geometry": { "type": "Point", "coordinates": [ 723645.0, 8822038.0 ] } },
{ "type": "Feature", "properties": { "ITEM": 84, "NOMENCLATU": "Ponto 84", "X -Longitu": 723835, "Y - Latitu": 8822230, "POLO": "CP", "Sequencial": "Mapa 17", "Status - D": "Realizado", "Status - N": "Realizado", "LAeq DIURN": 0.0, "LAeq NOTUR": 0.0, "LOCAÇÃO": null, "ESTAÇÃO": "INJETORA DE VAPOR V", "DATA": "23/08/2026" }, "geometry": { "type": "Point", "coordinates": [ 723835.0, 8822230.0 ] } },
{ "type": "Feature", "properties": { "ITEM": 85, "NOMENCLATU": "Ponto 85", "X -Longitu": 723635, "Y - Latitu": 8822227, "POLO": "CP", "Sequencial": "Mapa 17", "Status - D": "Realizado", "Status - N": "Realizado", "LAeq DIURN": 0.0, "LAeq NOTUR": 0.0, "LOCAÇÃO": null, "ESTAÇÃO": "INJETORA DE VAPOR V", "DATA": "23/08/2026" }, "geometry": { "type": "Point", "coordinates": [ 723635.0, 8822227.0 ] } },
{ "type": "Feature", "properties": { "ITEM": 86, "NOMENCLATU": "Ponto 86", "X -Longitu": 727621, "Y - Latitu": 8823798, "POLO": "CP", "Sequencial": "Mapa 18", "Status - D": "Pendente", "Status - N": "Pendente", "LAeq DIURN": 0.0, "LAeq NOTUR": 0.0, "LOCAÇÃO": null, "ESTAÇÃO": null, "DATA": null }, "geometry": { "type": "Point", "coordinates": [ 727635.572362886974588, 8823831.980117034167051 ] } },
{ "type": "Feature", "properties": { "ITEM": 87, "NOMENCLATU": "Ponto 87", "X -Longitu": 727823, "Y - Latitu": 8823842, "POLO": "CP", "Sequencial": "Mapa 18", "Status - D": "Pendente", "Status - N": "Pendente", "LAeq DIURN": 0.0, "LAeq NOTUR": 0.0, "LOCAÇÃO": null, "ESTAÇÃO": null, "DATA": null }, "geometry": { "type": "Point", "coordinates": [ 727804.770007072482258, 8823841.579983368515968 ] } },
{ "type": "Feature", "properties": { "ITEM": 88, "NOMENCLATU": "Ponto 88", "X -Longitu": 727951, "Y - Latitu": 8823741, "POLO": "CP", "Sequencial": "Mapa 18", "Status - D": "Pendente", "Status - N": "Pendente", "LAeq DIURN": 0.0, "LAeq NOTUR": 0.0, "LOCAÇÃO": null, "ESTAÇÃO": null, "DATA": null }, "geometry": { "type": "Point", "coordinates": [ 727945.068053640192375, 8823729.48154416680336 ] } },
{ "type": "Feature", "properties": { "ITEM": 89, "NOMENCLATU": "Ponto 89", "X -Longitu": 727799, "Y - Latitu": 8823693, "POLO": "CP", "Sequencial": "Mapa 18", "Status - D": "Pendente", "Status - N": "Pendente", "LAeq DIURN": 0.0, "LAeq NOTUR": 0.0, "LOCAÇÃO": null, "ESTAÇÃO": null, "DATA": null }, "geometry": { "type": "Point", "coordinates": [ 727800.570065550040454, 8823689.782096922397614 ] } },
{ "type": "Feature", "properties": { "ITEM": 90, "NOMENCLATU": "Ponto 90", "X -Longitu": 727566, "Y - Latitu": 8823590, "POLO": "CP", "Sequencial": "Mapa 18", "Status - D": "Pendente", "Status - N": "Pendente", "LAeq DIURN": 0.0, "LAeq NOTUR": 0.0, "LOCAÇÃO": null, "ESTAÇÃO": null, "DATA": null }, "geometry": { "type": "Point", "coordinates": [ 727577.173176004784182, 8823603.783294323831797 ] } },
{ "type": "Feature", "properties": { "ITEM": 91, "NOMENCLATU": "Ponto 91", "X -Longitu": 697858, "Y - Latitu": 8814870, "POLO": "RO", "Sequencial": "Mapa 19", "Status - D": "Pendente", "Status - N": "Pendente", "LAeq DIURN": null, "LAeq NOTUR": null, "LOCAÇÃO": null, "ESTAÇÃO": "E.C. ALTO DO COQUEIR", "DATA": null }, "geometry": { "type": "Point", "coordinates": [ 697858.0, 8814870.0 ] } },
{ "type": "Feature", "properties": { "ITEM": 92, "NOMENCLATU": "Ponto 92", "X -Longitu": 697770, "Y - Latitu": 8814872, "POLO": "RO", "Sequencial": "Mapa 19", "Status - D": "Pendente", "Status - N": "Pendente", "LAeq DIURN": 0.0, "LAeq NOTUR": 0.0, "LOCAÇÃO": null, "ESTAÇÃO": "E.C. ALTO DO COQUEIR", "DATA": null }, "geometry": { "type": "Point", "coordinates": [ 697699.13918123638723, 8814874.554835312068462 ] } },
{ "type": "Feature", "properties": { "ITEM": 93, "NOMENCLATU": "Ponto 93", "X -Longitu": 697729, "Y - Latitu": 8814814, "POLO": "RO", "Sequencial": "Mapa 19", "Status - D": "Pendente", "Status - N": "Pendente", "LAeq DIURN": 0.0, "LAeq NOTUR": 0.0, "LOCAÇÃO": null, "ESTAÇÃO": "E.C. ALTO DO COQUEIR", "DATA": null }, "geometry": { "type": "Point", "coordinates": [ 697695.039238321711309, 8814790.356007650494576 ] } },
{ "type": "Feature", "properties": { "ITEM": 94, "NOMENCLATU": "Ponto 94", "X -Longitu": 697840, "Y - Latitu": 8814794, "POLO": "RO", "Sequencial": "Mapa 19", "Status - D": "Pendente", "Status - N": "Pendente", "LAeq DIURN": 0.0, "LAeq NOTUR": 0.0, "LOCAÇÃO": null, "ESTAÇÃO": "E.C. ALTO DO COQUEIR", "DATA": null }, "geometry": { "type": "Point", "coordinates": [ 697840.737209703656845, 8814797.355910187587142 ] } },
{ "type": "Feature", "properties": { "ITEM": 95, "NOMENCLATU": "Ponto 95", "X -Longitu": 698024, "Y - Latitu": 8817049, "POLO": "RO", "Sequencial": "Mapa 20", "Status - D": "Pendente", "Status - N": "Pendente", "LAeq DIURN": 0.0, "LAeq NOTUR": 0.0, "LOCAÇÃO": null, "ESTAÇÃO": "COLETORA BONFIM\n", "DATA": null }, "geometry": { "type": "Point", "coordinates": [ 698024.0, 8817049.0 ] } },
{ "type": "Feature", "properties": { "ITEM": 96, "NOMENCLATU": "Ponto 96", "X -Longitu": 698264, "Y - Latitu": 8816880, "POLO": "RO", "Sequencial": "Mapa 20", "Status - D": "Pendente", "Status - N": "Pendente", "LAeq DIURN": 0.0, "LAeq NOTUR": 0.0, "LOCAÇÃO": null, "ESTAÇÃO": "COLETORA BONFIM\n", "DATA": null }, "geometry": { "type": "Point", "coordinates": [ 698264.0, 8816880.0 ] } },
{ "type": "Feature", "properties": { "ITEM": 97, "NOMENCLATU": "Ponto 97", "X -Longitu": 698250, "Y - Latitu": 8816755, "POLO": "RO", "Sequencial": "Mapa 20", "Status - D": "Pendente", "Status - N": "Pendente", "LAeq DIURN": 0.0, "LAeq NOTUR": 0.0, "LOCAÇÃO": null, "ESTAÇÃO": "COLETORA BONFIM\n", "DATA": null }, "geometry": { "type": "Point", "coordinates": [ 698250.0, 8816755.0 ] } },
{ "type": "Feature", "properties": { "ITEM": 98, "NOMENCLATU": "Ponto 98", "X -Longitu": 698137, "Y - Latitu": 8816622, "POLO": "RO", "Sequencial": "Mapa 20", "Status - D": "Pendente", "Status - N": "Pendente", "LAeq DIURN": 0.0, "LAeq NOTUR": 0.0, "LOCAÇÃO": null, "ESTAÇÃO": "COLETORA BONFIM\n", "DATA": null }, "geometry": { "type": "Point", "coordinates": [ 698137.0, 8816622.0 ] } },
{ "type": "Feature", "properties": { "ITEM": 99, "NOMENCLATU": "Ponto 99", "X -Longitu": 697990, "Y - Latitu": 8816789, "POLO": "RO", "Sequencial": "Mapa 20", "Status - D": "Pendente", "Status - N": "Pendente", "LAeq DIURN": 0.0, "LAeq NOTUR": 0.0, "LOCAÇÃO": null, "ESTAÇÃO": "COLETORA BONFIM\n", "DATA": null }, "geometry": { "type": "Point", "coordinates": [ 697990.0, 8816789.0 ] } },
{ "type": "Feature", "properties": { "ITEM": 100, "NOMENCLATU": "Ponto 100", "X -Longitu": 697763, "Y - Latitu": 8816978, "POLO": "RO", "Sequencial": "Mapa 20", "Status - D": "Pendente", "Status - N": "Pendente", "LAeq DIURN": 0.0, "LAeq NOTUR": 0.0, "LOCAÇÃO": null, "ESTAÇÃO": "COLETORA BONFIM\n", "DATA": null }, "geometry": { "type": "Point", "coordinates": [ 697763.0, 8816978.0 ] } },
{ "type": "Feature", "properties": { "ITEM": 101, "NOMENCLATU": "Ponto 101", "X -Longitu": 697720, "Y - Latitu": 8817102, "POLO": "RO", "Sequencial": "Mapa 20", "Status - D": "Pendente", "Status - N": "Pendente", "LAeq DIURN": 0.0, "LAeq NOTUR": 0.0, "LOCAÇÃO": null, "ESTAÇÃO": "COLETORA BONFIM\n", "DATA": null }, "geometry": { "type": "Point", "coordinates": [ 697720.0, 8817102.0 ] } },
{ "type": "Feature", "properties": { "ITEM": 102, "NOMENCLATU": "Ponto 102", "X -Longitu": 697645, "Y - Latitu": 8815049, "POLO": "RO", "Sequencial": "Mapa 21", "Status - D": "Pendente", "Status - N": "Pendente", "LAeq DIURN": 0.0, "LAeq NOTUR": 0.0, "LOCAÇÃO": null, "ESTAÇÃO": "E.C. ALTO DO COQUEIR", "DATA": null }, "geometry": { "type": "Point", "coordinates": [ 697689.039321861346252, 8815014.352888841181993 ] } },
{ "type": "Feature", "properties": { "ITEM": 103, "NOMENCLATU": "Ponto 103", "X -Longitu": 697765, "Y - Latitu": 8814938, "POLO": "RO", "Sequencial": "Mapa 21", "Status - D": "Pendente", "Status - N": "Pendente", "LAeq DIURN": 0.0, "LAeq NOTUR": 0.0, "LOCAÇÃO": null, "ESTAÇÃO": "E.C. ALTO DO COQUEIR", "DATA": null }, "geometry": { "type": "Point", "coordinates": [ 697739.538618736900389, 8814954.153727021068335 ] } },
{ "type": "Feature", "properties": { "ITEM": 104, "NOMENCLATU": "Ponto 104", "X -Longitu": 697668, "Y - Latitu": 8814717, "POLO": "RO", "Sequencial": "Mapa 21", "Status - D": "Pendente", "Status - N": "Pendente", "LAeq DIURN": 0.0, "LAeq NOTUR": 0.0, "LOCAÇÃO": null, "ESTAÇÃO": "E.C. ALTO DO COQUEIR", "DATA": null }, "geometry": { "type": "Point", "coordinates": [ 697659.539732597302645, 8814731.156831907108426 ] } },
{ "type": "Feature", "properties": { "ITEM": 105, "NOMENCLATU": "Ponto 105", "X -Longitu": 697337, "Y - Latitu": 8814898, "POLO": "RO", "Sequencial": "Mapa 21", "Status - D": "Pendente", "Status - N": "Pendente", "LAeq DIURN": 0.0, "LAeq NOTUR": 0.0, "LOCAÇÃO": null, "ESTAÇÃO": "E.C. ALTO DO COQUEIR", "DATA": null }, "geometry": { "type": "Point", "coordinates": [ 697331.44430081686005, 8814912.754303442314267 ] } },
{ "type": "Feature", "properties": { "ITEM": 106, "NOMENCLATU": "Ponto 106", "X -Longitu": 708794, "Y - Latitu": 8828276, "POLO": "CL", "Sequencial": "Mapa 22", "Status - D": "Pendente", "Status - N": "Pendente", "LAeq DIURN": 0.0, "LAeq NOTUR": 0.0, "LOCAÇÃO": null, "ESTAÇÃO": "E.C. CASTANHAL", "DATA": null }, "geometry": { "type": "Point", "coordinates": [ 708794.0, 8828276.0 ] } },
{ "type": "Feature", "properties": { "ITEM": 107, "NOMENCLATU": "Ponto 107", "X -Longitu": 708987, "Y - Latitu": 8828239, "POLO": "CL", "Sequencial": "Mapa 22", "Status - D": "Pendente", "Status - N": "Pendente", "LAeq DIURN": 0.0, "LAeq NOTUR": 0.0, "LOCAÇÃO": null, "ESTAÇÃO": "E.C. CASTANHAL", "DATA": null }, "geometry": { "type": "Point", "coordinates": [ 708987.0, 8828239.0 ] } },
{ "type": "Feature", "properties": { "ITEM": 108, "NOMENCLATU": "Ponto 108", "X -Longitu": 708693, "Y - Latitu": 8828212, "POLO": "CL", "Sequencial": "Mapa 22", "Status - D": "Pendente", "Status - N": "Pendente", "LAeq DIURN": 0.0, "LAeq NOTUR": 0.0, "LOCAÇÃO": null, "ESTAÇÃO": "E.C. CASTANHAL", "DATA": null }, "geometry": { "type": "Point", "coordinates": [ 708693.0, 8828212.0 ] } },
{ "type": "Feature", "properties": { "ITEM": 109, "NOMENCLATU": "Ponto 109", "X -Longitu": 708993, "Y - Latitu": 8828094, "POLO": "CL", "Sequencial": "Mapa 22", "Status - D": "Pendente", "Status - N": "Pendente", "LAeq DIURN": 0.0, "LAeq NOTUR": 0.0, "LOCAÇÃO": null, "ESTAÇÃO": "E.C. CASTANHAL", "DATA": null }, "geometry": { "type": "Point", "coordinates": [ 708993.0, 8828094.0 ] } },
{ "type": "Feature", "properties": { "ITEM": 110, "NOMENCLATU": "Ponto 110", "X -Longitu": 708808, "Y - Latitu": 8828099, "POLO": "CL", "Sequencial": "Mapa 22", "Status - D": "Pendente", "Status - N": "Pendente", "LAeq DIURN": 0.0, "LAeq NOTUR": 0.0, "LOCAÇÃO": null, "ESTAÇÃO": "E.C. CASTANHAL", "DATA": null }, "geometry": { "type": "Point", "coordinates": [ 708808.0, 8828099.0 ] } },
{ "type": "Feature", "properties": { "ITEM": 111, "NOMENCLATU": "Ponto 111", "X -Longitu": 708638, "Y - Latitu": 8823425, "POLO": "SZ", "Sequencial": "Mapa 23", "Status - D": "Pendente", "Status - N": "Pendente", "LAeq DIURN": 0.0, "LAeq NOTUR": 0.0, "LOCAÇÃO": null, "ESTAÇÃO": "E.T.P. SIRIRIZINHO", "DATA": null }, "geometry": { "type": "Point", "coordinates": [ 708639.046240903786384, 8823411.963014150038362 ] } },
{ "type": "Feature", "properties": { "ITEM": 112, "NOMENCLATU": "Ponto 112", "X -Longitu": 708890, "Y - Latitu": 8823110, "POLO": "SZ", "Sequencial": "Mapa 23", "Status - D": "Pendente", "Status - N": "Pendente", "LAeq DIURN": 0.0, "LAeq NOTUR": 0.0, "LOCAÇÃO": null, "ESTAÇÃO": "E.T.P. SIRIRIZINHO", "DATA": null }, "geometry": { "type": "Point", "coordinates": [ 708904.558163157431409, 8823108.265193512663245 ] } },
{ "type": "Feature", "properties": { "ITEM": 113, "NOMENCLATU": "Ponto 113", "X -Longitu": 708704, "Y - Latitu": 8822810, "POLO": "SZ", "Sequencial": "Mapa 23", "Status - D": "Pendente", "Status - N": "Pendente", "LAeq DIURN": 0.0, "LAeq NOTUR": 0.0, "LOCAÇÃO": null, "ESTAÇÃO": "E.T.P. SIRIRIZINHO", "DATA": null }, "geometry": { "type": "Point", "coordinates": [ 708681.461269435705617, 8822813.069303654134274 ] } },
{ "type": "Feature", "properties": { "ITEM": 114, "NOMENCLATU": "Ponto 114", "X -Longitu": 708470, "Y - Latitu": 8822843, "POLO": "SZ", "Sequencial": "Mapa 23", "Status - D": "Pendente", "Status - N": "Pendente", "LAeq DIURN": 0.0, "LAeq NOTUR": 0.0, "LOCAÇÃO": null, "ESTAÇÃO": "E.T.P. SIRIRIZINHO", "DATA": null }, "geometry": { "type": "Point", "coordinates": [ 708467.764244834776036, 8822872.268479395657778 ] } },
{ "type": "Feature", "properties": { "ITEM": 115, "NOMENCLATU": "Ponto 115", "X -Longitu": 708421, "Y - Latitu": 8823000, "POLO": "SZ", "Sequencial": "Mapa 23", "Status - D": "Pendente", "Status - N": "Pendente", "LAeq DIURN": 0.0, "LAeq NOTUR": 0.0, "LOCAÇÃO": null, "ESTAÇÃO": "E.T.P. SIRIRIZINHO", "DATA": null }, "geometry": { "type": "Point", "coordinates": [ 708439.996400170377456, 8822957.600850934162736 ] } },
{ "type": "Feature", "properties": { "ITEM": 116, "NOMENCLATU": "Ponto 116", "X -Longitu": 708420, "Y - Latitu": 8823138, "POLO": "SZ", "Sequencial": "Mapa 23", "Status - D": "Pendente", "Status - N": "Pendente", "LAeq DIURN": 0.0, "LAeq NOTUR": 0.0, "LOCAÇÃO": null, "ESTAÇÃO": "E.T.P. SIRIRIZINHO", "DATA": null }, "geometry": { "type": "Point", "coordinates": [ 708468.340756506077014, 8823162.085135927423835 ] } },
{ "type": "Feature", "properties": { "ITEM": 117, "NOMENCLATU": "Ponto 117", "X -Longitu": 710195, "Y - Latitu": 8824493, "POLO": "SZ", "Sequencial": "Mapa 24", "Status - D": "Pendente", "Status - N": "Pendente", "LAeq DIURN": 0.0, "LAeq NOTUR": 0.0, "LOCAÇÃO": null, "ESTAÇÃO": "E.C. SIRIRIZINHO II", "DATA": null }, "geometry": { "type": "Point", "coordinates": [ 710199.903878517798148, 8824509.294523717835546 ] } },
{ "type": "Feature", "properties": { "ITEM": 118, "NOMENCLATU": "Ponto 118", "X -Longitu": 710425, "Y - Latitu": 8824375, "POLO": "SZ", "Sequencial": "Mapa 24", "Status - D": "Pendente", "Status - N": "Pendente", "LAeq DIURN": 0.0, "LAeq NOTUR": 0.0, "LOCAÇÃO": null, "ESTAÇÃO": "E.C. SIRIRIZINHO II", "DATA": null }, "geometry": { "type": "Point", "coordinates": [ 710426.658729203394614, 8824382.996973542496562 ] } },
{ "type": "Feature", "properties": { "ITEM": 119, "NOMENCLATU": "Ponto 119", "X -Longitu": 710528, "Y - Latitu": 8824259, "POLO": "SZ", "Sequencial": "Mapa 24", "Status - D": "Pendente", "Status - N": "Pendente", "LAeq DIURN": 0.0, "LAeq NOTUR": 0.0, "LOCAÇÃO": null, "ESTAÇÃO": "E.C. SIRIRIZINHO II", "DATA": null }, "geometry": { "type": "Point", "coordinates": [ 710528.0, 8824259.0 ] } },
{ "type": "Feature", "properties": { "ITEM": 120, "NOMENCLATU": "Ponto 120", "X -Longitu": 710258, "Y - Latitu": 8824325, "POLO": "SZ", "Sequencial": "Mapa 24", "Status - D": "Pendente", "Status - N": "Pendente", "LAeq DIURN": 0.0, "LAeq NOTUR": 0.0, "LOCAÇÃO": null, "ESTAÇÃO": "E.C. SIRIRIZINHO II", "DATA": null }, "geometry": { "type": "Point", "coordinates": [ 710259.149976723245345, 8824327.373838176950812 ] } },
{ "type": "Feature", "properties": { "ITEM": 121, "NOMENCLATU": "Ponto 121", "X -Longitu": 710638, "Y - Latitu": 8824336, "POLO": "SZ", "Sequencial": "Mapa 24", "Status - D": "Pendente", "Status - N": "Pendente", "LAeq DIURN": 0.0, "LAeq NOTUR": 0.0, "LOCAÇÃO": null, "ESTAÇÃO": "E.C. SIRIRIZINHO II", "DATA": null }, "geometry": { "type": "Point", "coordinates": [ 710673.233317777863704, 8824324.390221720561385 ] } },
{ "type": "Feature", "properties": { "ITEM": 122, "NOMENCLATU": "Ponto 122", "X -Longitu": 710724, "Y - Latitu": 8824544, "POLO": "SZ", "Sequencial": "Mapa 24", "Status - D": "Pendente", "Status - N": "Pendente", "LAeq DIURN": 0.0, "LAeq NOTUR": 0.0, "LOCAÇÃO": null, "ESTAÇÃO": "E.C. SIRIRIZINHO II", "DATA": null }, "geometry": { "type": "Point", "coordinates": [ 710716.921987317851745, 8824550.079495100304484 ] } },
{ "type": "Feature", "properties": { "ITEM": 123, "NOMENCLATU": "Ponto 123", "X -Longitu": 709170, "Y - Latitu": 8827729, "POLO": "CL", "Sequencial": "Mapa 25", "Status - D": "Pendente", "Status - N": "Pendente", "LAeq DIURN": 0.0, "LAeq NOTUR": 0.0, "LOCAÇÃO": null, "ESTAÇÃO": "E.C. CASTANHAL", "DATA": null }, "geometry": { "type": "Point", "coordinates": [ 709170.0, 8827729.0 ] } },
{ "type": "Feature", "properties": { "ITEM": 124, "NOMENCLATU": "Ponto 124", "X -Longitu": 709247, "Y - Latitu": 8827850, "POLO": "CL", "Sequencial": "Mapa 25", "Status - D": "Pendente", "Status - N": "Pendente", "LAeq DIURN": 0.0, "LAeq NOTUR": 0.0, "LOCAÇÃO": null, "ESTAÇÃO": "E.C. CASTANHAL", "DATA": null }, "geometry": { "type": "Point", "coordinates": [ 709247.0, 8827850.0 ] } },
{ "type": "Feature", "properties": { "ITEM": 125, "NOMENCLATU": "Ponto 125", "X -Longitu": 709404, "Y - Latitu": 8827758, "POLO": "CL", "Sequencial": "Mapa 25", "Status - D": "Pendente", "Status - N": "Pendente", "LAeq DIURN": 0.0, "LAeq NOTUR": 0.0, "LOCAÇÃO": null, "ESTAÇÃO": "E.C. CASTANHAL", "DATA": null }, "geometry": { "type": "Point", "coordinates": [ 709404.0, 8827758.0 ] } },
{ "type": "Feature", "properties": { "ITEM": 126, "NOMENCLATU": "Ponto 126", "X -Longitu": 709283, "Y - Latitu": 8827644, "POLO": "CL", "Sequencial": "Mapa 25", "Status - D": "Pendente", "Status - N": "Pendente", "LAeq DIURN": 0.0, "LAeq NOTUR": 0.0, "LOCAÇÃO": null, "ESTAÇÃO": "E.C. CASTANHAL", "DATA": null }, "geometry": { "type": "Point", "coordinates": [ 709283.0, 8827644.0 ] } },
{ "type": "Feature", "properties": { "ITEM": 127, "NOMENCLATU": "Ponto 127", "X -Longitu": 712726, "Y - Latitu": 8813928, "POLO": "CP", "Sequencial": "Mapa 26", "Status - D": "Pendente", "Status - N": "Pendente", "LAeq DIURN": 0.0, "LAeq NOTUR": 0.0, "LOCAÇÃO": null, "ESTAÇÃO": "COLETORA JORDÃO", "DATA": null }, "geometry": { "type": "Point", "coordinates": [ 712726.0, 8813928.0 ] } },
{ "type": "Feature", "properties": { "ITEM": 128, "NOMENCLATU": "Ponto 128", "X -Longitu": 712614, "Y - Latitu": 8813714, "POLO": "CP", "Sequencial": "Mapa 26", "Status - D": "Pendente", "Status - N": "Pendente", "LAeq DIURN": 0.0, "LAeq NOTUR": 0.0, "LOCAÇÃO": null, "ESTAÇÃO": "COLETORA JORDÃO", "DATA": null }, "geometry": { "type": "Point", "coordinates": [ 712614.0, 8813714.0 ] } },
{ "type": "Feature", "properties": { "ITEM": 129, "NOMENCLATU": "Ponto 129", "X -Longitu": 712994, "Y - Latitu": 8814200, "POLO": "CP", "Sequencial": "Mapa 26", "Status - D": "Pendente", "Status - N": "Pendente", "LAeq DIURN": 0.0, "LAeq NOTUR": 0.0, "LOCAÇÃO": null, "ESTAÇÃO": "COLETORA JORDÃO", "DATA": null }, "geometry": { "type": "Point", "coordinates": [ 712994.0, 8814200.0 ] } },
{ "type": "Feature", "properties": { "ITEM": 130, "NOMENCLATU": "Ponto 130", "X -Longitu": 712584, "Y - Latitu": 8814247, "POLO": "CP", "Sequencial": "Mapa 26", "Status - D": "Pendente", "Status - N": "Pendente", "LAeq DIURN": 0.0, "LAeq NOTUR": 0.0, "LOCAÇÃO": null, "ESTAÇÃO": "COLETORA JORDÃO", "DATA": null }, "geometry": { "type": "Point", "coordinates": [ 712584.0, 8814247.0 ] } },
{ "type": "Feature", "properties": { "ITEM": 131, "NOMENCLATU": "Ponto 131", "X -Longitu": 712366, "Y - Latitu": 8814225, "POLO": "CP", "Sequencial": "Mapa 26", "Status - D": "Pendente", "Status - N": "Pendente", "LAeq DIURN": 0.0, "LAeq NOTUR": 0.0, "LOCAÇÃO": null, "ESTAÇÃO": "COLETORA JORDÃO", "DATA": null }, "geometry": { "type": "Point", "coordinates": [ 712366.0, 8814225.0 ] } },
{ "type": "Feature", "properties": { "ITEM": 132, "NOMENCLATU": "Ponto 132", "X -Longitu": 712319, "Y - Latitu": 8813929, "POLO": "CP", "Sequencial": "Mapa 26", "Status - D": "Pendente", "Status - N": "Pendente", "LAeq DIURN": 0.0, "LAeq NOTUR": 0.0, "LOCAÇÃO": null, "ESTAÇÃO": "COLETORA JORDÃO", "DATA": null }, "geometry": { "type": "Point", "coordinates": [ 712319.0, 8813929.0 ] } },
{ "type": "Feature", "properties": { "ITEM": 133, "NOMENCLATU": "Ponto 133", "X -Longitu": 712709, "Y - Latitu": 8814016, "POLO": "CP", "Sequencial": "Mapa 26", "Status - D": "Pendente", "Status - N": "Pendente", "LAeq DIURN": 0.0, "LAeq NOTUR": 0.0, "LOCAÇÃO": null, "ESTAÇÃO": "COLETORA JORDÃO", "DATA": null }, "geometry": { "type": "Point", "coordinates": [ 712709.0, 8814016.0 ] } },
{ "type": "Feature", "properties": { "ITEM": 134, "NOMENCLATU": "Ponto 134", "X -Longitu": 716178, "Y - Latitu": 8819253, "POLO": "CP", "Sequencial": "Mapa 27", "Status - D": "Pendente", "Status - N": "Pendente", "LAeq DIURN": 0.0, "LAeq NOTUR": 0.0, "LOCAÇÃO": null, "ESTAÇÃO": "E.C. SÍTIO NOVO", "DATA": null }, "geometry": { "type": "Point", "coordinates": [ 716178.0, 8819253.0 ] } },
{ "type": "Feature", "properties": { "ITEM": 135, "NOMENCLATU": "Ponto 135", "X -Longitu": 716337, "Y - Latitu": 8819017, "POLO": "CP", "Sequencial": "Mapa 27", "Status - D": "Pendente", "Status - N": "Pendente", "LAeq DIURN": 0.0, "LAeq NOTUR": null, "LOCAÇÃO": null, "ESTAÇÃO": "E.C. SÍTIO NOVO", "DATA": null }, "geometry": { "type": "Point", "coordinates": [ 716337.0, 8819017.0 ] } },
{ "type": "Feature", "properties": { "ITEM": 136, "NOMENCLATU": "Ponto 136", "X -Longitu": 716205, "Y - Latitu": 8818959, "POLO": "CP", "Sequencial": "Mapa 27", "Status - D": "Pendente", "Status - N": "Pendente", "LAeq DIURN": 0.0, "LAeq NOTUR": null, "LOCAÇÃO": null, "ESTAÇÃO": "E.C. SÍTIO NOVO", "DATA": null }, "geometry": { "type": "Point", "coordinates": [ 716205.0, 8818959.0 ] } },
{ "type": "Feature", "properties": { "ITEM": 137, "NOMENCLATU": "Ponto 137", "X -Longitu": 716206, "Y - Latitu": 8818878, "POLO": "CP", "Sequencial": "Mapa 27", "Status - D": "Pendente", "Status - N": "Pendente", "LAeq DIURN": 0.0, "LAeq NOTUR": 0.0, "LOCAÇÃO": null, "ESTAÇÃO": "E.C. SÍTIO NOVO", "DATA": null }, "geometry": { "type": "Point", "coordinates": [ 716206.0, 8818878.0 ] } },
{ "type": "Feature", "properties": { "ITEM": 138, "NOMENCLATU": "Ponto 138", "X -Longitu": 716070, "Y - Latitu": 8818844, "POLO": "CP", "Sequencial": "Mapa 27", "Status - D": "Pendente", "Status - N": "Pendente", "LAeq DIURN": 0.0, "LAeq NOTUR": 0.0, "LOCAÇÃO": null, "ESTAÇÃO": "E.C. SÍTIO NOVO", "DATA": null }, "geometry": { "type": "Point", "coordinates": [ 716070.0, 8818844.0 ] } },
{ "type": "Feature", "properties": { "ITEM": 139, "NOMENCLATU": "Ponto 139", "X -Longitu": 715957, "Y - Latitu": 8818899, "POLO": "CP", "Sequencial": "Mapa 27", "Status - D": "Pendente", "Status - N": "Pendente", "LAeq DIURN": 0.0, "LAeq NOTUR": 0.0, "LOCAÇÃO": null, "ESTAÇÃO": "E.C. SÍTIO NOVO", "DATA": null }, "geometry": { "type": "Point", "coordinates": [ 715957.0, 8818899.0 ] } },
{ "type": "Feature", "properties": { "ITEM": 140, "NOMENCLATU": "Ponto 140", "X -Longitu": 715911, "Y - Latitu": 8819017, "POLO": "CP", "Sequencial": "Mapa 27", "Status - D": "Pendente", "Status - N": "Pendente", "LAeq DIURN": 0.0, "LAeq NOTUR": 0.0, "LOCAÇÃO": null, "ESTAÇÃO": "E.C. SÍTIO NOVO", "DATA": null }, "geometry": { "type": "Point", "coordinates": [ 715911.0, 8819017.0 ] } },
{ "type": "Feature", "properties": { "ITEM": 141, "NOMENCLATU": "Ponto 141", "X -Longitu": 716043, "Y - Latitu": 8819192, "POLO": "CP", "Sequencial": "Mapa 27", "Status - D": "Pendente", "Status - N": "Pendente", "LAeq DIURN": 0.0, "LAeq NOTUR": 0.0, "LOCAÇÃO": null, "ESTAÇÃO": "E.C. SÍTIO NOVO", "DATA": null }, "geometry": { "type": "Point", "coordinates": [ 716043.0, 8819192.0 ] } },
{ "type": "Feature", "properties": { "ITEM": 142, "NOMENCLATU": "Ponto 142", "X -Longitu": 697346, "Y - Latitu": 8776091, "POLO": "IP", "Sequencial": "Mapa 28", "Status - D": "Pendente", "Status - N": "Pendente", "LAeq DIURN": 0.0, "LAeq NOTUR": 0.0, "LOCAÇÃO": null, "ESTAÇÃO": "E.C. ILHA PEQUENA", "DATA": null }, "geometry": { "type": "Point", "coordinates": [ 697346.0, 8776091.0 ] } },
{ "type": "Feature", "properties": { "ITEM": 143, "NOMENCLATU": "Ponto 143", "X -Longitu": 697344, "Y - Latitu": 8776008, "POLO": "IP", "Sequencial": "Mapa 28", "Status - D": "Pendente", "Status - N": "Pendente", "LAeq DIURN": 0.0, "LAeq NOTUR": 0.0, "LOCAÇÃO": null, "ESTAÇÃO": "E.C. ILHA PEQUENA", "DATA": null }, "geometry": { "type": "Point", "coordinates": [ 697344.0, 8776008.0 ] } },
{ "type": "Feature", "properties": { "ITEM": 144, "NOMENCLATU": "Ponto 144", "X -Longitu": 697265, "Y - Latitu": 8775887, "POLO": "IP", "Sequencial": "Mapa 28", "Status - D": "Pendente", "Status - N": "Pendente", "LAeq DIURN": 0.0, "LAeq NOTUR": 0.0, "LOCAÇÃO": null, "ESTAÇÃO": "E.C. ILHA PEQUENA", "DATA": null }, "geometry": { "type": "Point", "coordinates": [ 697265.0, 8775887.0 ] } },
{ "type": "Feature", "properties": { "ITEM": 145, "NOMENCLATU": "Ponto 145", "X -Longitu": 697290, "Y - Latitu": 8775821, "POLO": "IP", "Sequencial": "Mapa 28", "Status - D": "Pendente", "Status - N": "Pendente", "LAeq DIURN": 0.0, "LAeq NOTUR": 0.0, "LOCAÇÃO": null, "ESTAÇÃO": "E.C. ILHA PEQUENA", "DATA": null }, "geometry": { "type": "Point", "coordinates": [ 697290.0, 8775821.0 ] } },
{ "type": "Feature", "properties": { "ITEM": 146, "NOMENCLATU": "Ponto 146", "X -Longitu": 697313, "Y - Latitu": 8775749, "POLO": "IP", "Sequencial": "Mapa 28", "Status - D": "Pendente", "Status - N": "Pendente", "LAeq DIURN": 0.0, "LAeq NOTUR": 0.0, "LOCAÇÃO": null, "ESTAÇÃO": "E.C. ILHA PEQUENA", "DATA": null }, "geometry": { "type": "Point", "coordinates": [ 697313.0, 8775749.0 ] } },
{ "type": "Feature", "properties": { "ITEM": 147, "NOMENCLATU": "Ponto 147", "X -Longitu": 745545, "Y - Latitu": 8845320, "POLO": "Fora do Polo", "Sequencial": "Mapa 29", "Status - D": "Pendente", "Status - N": "Pendente", "LAeq DIURN": 0.0, "LAeq NOTUR": 0.0, "LOCAÇÃO": null, "ESTAÇÃO": null, "DATA": null }, "geometry": { "type": "Point", "coordinates": [ 745545.0, 8845320.0 ] } },
{ "type": "Feature", "properties": { "ITEM": 148, "NOMENCLATU": "Ponto 148", "X -Longitu": 745840, "Y - Latitu": 8845325, "POLO": "Fora do Polo", "Sequencial": "Mapa 29", "Status - D": "Pendente", "Status - N": "Pendente", "LAeq DIURN": 0.0, "LAeq NOTUR": 0.0, "LOCAÇÃO": null, "ESTAÇÃO": null, "DATA": null }, "geometry": { "type": "Point", "coordinates": [ 745840.0, 8845325.0 ] } },
{ "type": "Feature", "properties": { "ITEM": 149, "NOMENCLATU": "Ponto 149", "X -Longitu": 745606, "Y - Latitu": 8845127, "POLO": "Fora do Polo", "Sequencial": "Mapa 29", "Status - D": "Pendente", "Status - N": "Pendente", "LAeq DIURN": 0.0, "LAeq NOTUR": 0.0, "LOCAÇÃO": null, "ESTAÇÃO": null, "DATA": null }, "geometry": { "type": "Point", "coordinates": [ 745606.0, 8845127.0 ] } },
{ "type": "Feature", "properties": { "ITEM": 150, "NOMENCLATU": "Ponto 150", "X -Longitu": 745755, "Y - Latitu": 8845127, "POLO": "Fora do Polo", "Sequencial": "Mapa 29", "Status - D": "Pendente", "Status - N": "Pendente", "LAeq DIURN": 0.0, "LAeq NOTUR": 0.0, "LOCAÇÃO": null, "ESTAÇÃO": null, "DATA": null }, "geometry": { "type": "Point", "coordinates": [ 745755.0, 8845127.0 ] } },
{ "type": "Feature", "properties": { "ITEM": 151, "NOMENCLATU": "Ponto 151", "X -Longitu": 749581, "Y - Latitu": 8825088, "POLO": "Fora do Polo", "Sequencial": "Mapa 30", "Status - D": "Pendente", "Status - N": "Pendente", "LAeq DIURN": 0.0, "LAeq NOTUR": null, "LOCAÇÃO": null, "ESTAÇÃO": null, "DATA": null }, "geometry": { "type": "Point", "coordinates": [ 749581.0, 8825088.0 ] } },
{ "type": "Feature", "properties": { "ITEM": 152, "NOMENCLATU": "Ponto 152", "X -Longitu": 749997, "Y - Latitu": 8824901, "POLO": "Fora do Polo", "Sequencial": "Mapa 30", "Status - D": "Pendente", "Status - N": "Pendente", "LAeq DIURN": 0.0, "LAeq NOTUR": null, "LOCAÇÃO": null, "ESTAÇÃO": null, "DATA": null }, "geometry": { "type": "Point", "coordinates": [ 749997.0, 8824901.0 ] } },
{ "type": "Feature", "properties": { "ITEM": 153, "NOMENCLATU": "Ponto 153", "X -Longitu": 750182, "Y - Latitu": 8825187, "POLO": "Fora do Polo", "Sequencial": "Mapa 30", "Status - D": "Pendente", "Status - N": "Pendente", "LAeq DIURN": 0.0, "LAeq NOTUR": null, "LOCAÇÃO": null, "ESTAÇÃO": null, "DATA": null }, "geometry": { "type": "Point", "coordinates": [ 750182.0, 8825187.0 ] } },
{ "type": "Feature", "properties": { "ITEM": 154, "NOMENCLATU": "Ponto 154", "X -Longitu": 749703, "Y - Latitu": 8825407, "POLO": "Fora do Polo", "Sequencial": "Mapa 30", "Status - D": "Pendente", "Status - N": "Pendente", "LAeq DIURN": null, "LAeq NOTUR": null, "LOCAÇÃO": null, "ESTAÇÃO": null, "DATA": null }, "geometry": { "type": "Point", "coordinates": [ 749703.0, 8825407.0 ] } },
{ "type": "Feature", "properties": { "ITEM": 155, "NOMENCLATU": "Ponto 155", "X -Longitu": 691075, "Y - Latitu": 8811903, "POLO": "RO", "Sequencial": "Mapa 31", "Status - D": "Pendente", "Status - N": "Pendente", "LAeq DIURN": 0.0, "LAeq NOTUR": 0.0, "LOCAÇÃO": null, "ESTAÇÃO": "E.C.TREME", "DATA": null }, "geometry": { "type": "Point", "coordinates": [ 691069.981481962953694, 8811917.546007061377168 ] } },
{ "type": "Feature", "properties": { "ITEM": 156, "NOMENCLATU": "Ponto 156", "X -Longitu": 691054, "Y - Latitu": 8812054, "POLO": "RO", "Sequencial": "Mapa 31", "Status - D": "Pendente", "Status - N": "Pendente", "LAeq DIURN": 0.0, "LAeq NOTUR": 0.0, "LOCAÇÃO": null, "ESTAÇÃO": "E.C.TREME", "DATA": null }, "geometry": { "type": "Point", "coordinates": [ 691055.981676888419315, 8812054.644098188728094 ] } },
{ "type": "Feature", "properties": { "ITEM": 157, "NOMENCLATU": "Ponto 157", "X -Longitu": 690776, "Y - Latitu": 8812071, "POLO": "RO", "Sequencial": "Mapa 31", "Status - D": "Pendente", "Status - N": "Pendente", "LAeq DIURN": 0.0, "LAeq NOTUR": 0.0, "LOCAÇÃO": null, "ESTAÇÃO": "E.C.TREME", "DATA": null }, "geometry": { "type": "Point", "coordinates": [ 690770.435652673477307, 8812096.193519677966833 ] } },
{ "type": "Feature", "properties": { "ITEM": 158, "NOMENCLATU": "Ponto 158", "X -Longitu": 690747, "Y - Latitu": 8811890, "POLO": "RO", "Sequencial": "Mapa 31", "Status - D": "Pendente", "Status - N": "Pendente", "LAeq DIURN": 0.0, "LAeq NOTUR": 0.0, "LOCAÇÃO": null, "ESTAÇÃO": "E.C.TREME", "DATA": null }, "geometry": { "type": "Point", "coordinates": [ 690747.0, 8811890.0 ] } },
{ "type": "Feature", "properties": { "ITEM": 159, "NOMENCLATU": "Ponto 159", "X -Longitu": 690970, "Y - Latitu": 8811732, "POLO": "RO", "Sequencial": "Mapa 31", "Status - D": "Pendente", "Status - N": "Pendente", "LAeq DIURN": 0.0, "LAeq NOTUR": 0.0, "LOCAÇÃO": null, "ESTAÇÃO": "E.C.TREME", "DATA": null }, "geometry": { "type": "Point", "coordinates": [ 690935.783350463025272, 8811732.048589829355478 ] } },
{ "type": "Feature", "properties": { "ITEM": 161, "NOMENCLATU": "Ponto 161", "X -Longitu": 719947, "Y - Latitu": 8820374, "POLO": "CP", "Sequencial": "Mapa 32", "Status - D": "Pendente", "Status - N": "Pendente", "LAeq DIURN": 0.0, "LAeq NOTUR": 0.0, "LOCAÇÃO": null, "ESTAÇÃO": "E.C.T. CARMOPOLIS", "DATA": "28/08/2026" }, "geometry": { "type": "Point", "coordinates": [ 719947.0, 8820374.0 ] } },
{ "type": "Feature", "properties": { "ITEM": 162, "NOMENCLATU": "Ponto 162", "X -Longitu": 719963, "Y - Latitu": 8820241, "POLO": "CP", "Sequencial": "Mapa 32", "Status - D": "Pendente", "Status - N": "Pendente", "LAeq DIURN": 0.0, "LAeq NOTUR": 0.0, "LOCAÇÃO": null, "ESTAÇÃO": "E.C.T. CARMOPOLIS", "DATA": "28/08/2026" }, "geometry": { "type": "Point", "coordinates": [ 719963.0, 8820241.0 ] } },
{ "type": "Feature", "properties": { "ITEM": 163, "NOMENCLATU": "Ponto 163", "X -Longitu": 720085, "Y - Latitu": 8820224, "POLO": "CP", "Sequencial": "Mapa 32", "Status - D": "Pendente", "Status - N": "Pendente", "LAeq DIURN": 0.0, "LAeq NOTUR": 0.0, "LOCAÇÃO": null, "ESTAÇÃO": "E.C.T. CARMOPOLIS", "DATA": "28/08/2026" }, "geometry": { "type": "Point", "coordinates": [ 720085.0, 8820224.0 ] } },
{ "type": "Feature", "properties": { "ITEM": 164, "NOMENCLATU": "Ponto 164", "X -Longitu": 719748, "Y - Latitu": 8819997, "POLO": "CP", "Sequencial": "Mapa 32", "Status - D": "Pendente", "Status - N": "Pendente", "LAeq DIURN": 0.0, "LAeq NOTUR": 0.0, "LOCAÇÃO": null, "ESTAÇÃO": "E.C.T. CARMOPOLIS", "DATA": "28/08/2026" }, "geometry": { "type": "Point", "coordinates": [ 719748.0, 8819997.0 ] } },
{ "type": "Feature", "properties": { "ITEM": 165, "NOMENCLATU": "Ponto 165", "X -Longitu": 702592, "Y - Latitu": 8818600, "POLO": "MG", "Sequencial": "Mapa 33", "Status - D": "Pendente", "Status - N": "Pendente", "LAeq DIURN": 0.0, "LAeq NOTUR": 0.0, "LOCAÇÃO": null, "ESTAÇÃO": "MATO GROSSO", "DATA": null }, "geometry": { "type": "Point", "coordinates": [ 702601.320925963227637, 8818596.953006662428379 ] } },
{ "type": "Feature", "properties": { "ITEM": 166, "NOMENCLATU": "Ponto 166", "X -Longitu": 702595, "Y - Latitu": 8818686, "POLO": "MG", "Sequencial": "Mapa 33", "Status - D": "Pendente", "Status - N": "Pendente", "LAeq DIURN": 0.0, "LAeq NOTUR": 0.0, "LOCAÇÃO": null, "ESTAÇÃO": "MATO GROSSO", "DATA": null }, "geometry": { "type": "Point", "coordinates": [ 702595.0, 8818686.0 ] } },
{ "type": "Feature", "properties": { "ITEM": 167, "NOMENCLATU": "Ponto 167", "X -Longitu": 702746, "Y - Latitu": 8818698, "POLO": "MG", "Sequencial": "Mapa 33", "Status - D": "Pendente", "Status - N": "Pendente", "LAeq DIURN": 0.0, "LAeq NOTUR": 0.0, "LOCAÇÃO": null, "ESTAÇÃO": "MATO GROSSO", "DATA": null }, "geometry": { "type": "Point", "coordinates": [ 702753.618805451667868, 8818694.151653319597244 ] } },
{ "type": "Feature", "properties": { "ITEM": 168, "NOMENCLATU": "Ponto 168", "X -Longitu": 702801, "Y - Latitu": 8818640, "POLO": "MG", "Sequencial": "Mapa 33", "Status - D": "Pendente", "Status - N": "Pendente", "LAeq DIURN": 0.0, "LAeq NOTUR": 0.0, "LOCAÇÃO": null, "ESTAÇÃO": "MATO GROSSO", "DATA": null }, "geometry": { "type": "Point", "coordinates": [ 702803.918105112039484, 8818647.452303534373641 ] } },
{ "type": "Feature", "properties": { "ITEM": 169, "NOMENCLATU": "Ponto 169", "X -Longitu": 702729, "Y - Latitu": 8818587, "POLO": "MG", "Sequencial": "Mapa 33", "Status - D": "Pendente", "Status - N": "Pendente", "LAeq DIURN": 0.0, "LAeq NOTUR": null, "LOCAÇÃO": null, "ESTAÇÃO": "MATO GROSSO", "DATA": null }, "geometry": { "type": "Point", "coordinates": [ 702729.0, 8818587.0 ] } },
{ "type": "Feature", "properties": { "ITEM": 170, "NOMENCLATU": "Ponto 170", "X -Longitu": 710224, "Y - Latitu": 8782309, "POLO": "Fora do Polo", "Sequencial": "Mapa 34", "Status - D": "Pendente", "Status - N": "Pendente", "LAeq DIURN": 0.0, "LAeq NOTUR": 0.0, "LOCAÇÃO": null, "ESTAÇÃO": null, "DATA": null }, "geometry": { "type": "Point", "coordinates": [ 710224.0, 8782309.0 ] } },
{ "type": "Feature", "properties": { "ITEM": 171, "NOMENCLATU": "Ponto 171", "X -Longitu": 710667, "Y - Latitu": 8781969, "POLO": "Fora do Polo", "Sequencial": "Mapa 34", "Status - D": "Pendente", "Status - N": "Pendente", "LAeq DIURN": 0.0, "LAeq NOTUR": 0.0, "LOCAÇÃO": null, "ESTAÇÃO": null, "DATA": null }, "geometry": { "type": "Point", "coordinates": [ 710667.0, 8781969.0 ] } },
{ "type": "Feature", "properties": { "ITEM": 172, "NOMENCLATU": "Ponto 172", "X -Longitu": 710890, "Y - Latitu": 8781795, "POLO": "Fora do Polo", "Sequencial": "Mapa 34", "Status - D": "Pendente", "Status - N": "Pendente", "LAeq DIURN": 0.0, "LAeq NOTUR": 0.0, "LOCAÇÃO": null, "ESTAÇÃO": null, "DATA": null }, "geometry": { "type": "Point", "coordinates": [ 710890.0, 8781795.0 ] } },
{ "type": "Feature", "properties": { "ITEM": 173, "NOMENCLATU": "Ponto 173", "X -Longitu": 711093, "Y - Latitu": 8781755, "POLO": "Fora do Polo", "Sequencial": "Mapa 34", "Status - D": "Pendente", "Status - N": "Pendente", "LAeq DIURN": 0.0, "LAeq NOTUR": 0.0, "LOCAÇÃO": null, "ESTAÇÃO": null, "DATA": null }, "geometry": { "type": "Point", "coordinates": [ 711093.0, 8781755.0 ] } },
{ "type": "Feature", "properties": { "ITEM": 174, "NOMENCLATU": "Ponto 174", "X -Longitu": 711465, "Y - Latitu": 8782195, "POLO": "Fora do Polo", "Sequencial": "Mapa 34", "Status - D": "Pendente", "Status - N": "Pendente", "LAeq DIURN": 0.0, "LAeq NOTUR": 0.0, "LOCAÇÃO": null, "ESTAÇÃO": null, "DATA": null }, "geometry": { "type": "Point", "coordinates": [ 711465.0, 8782195.0 ] } },
{ "type": "Feature", "properties": { "ITEM": 175, "NOMENCLATU": "Ponto 175", "X -Longitu": 711671, "Y - Latitu": 8782450, "POLO": "Fora do Polo", "Sequencial": "Mapa 34", "Status - D": "Pendente", "Status - N": "Pendente", "LAeq DIURN": 0.0, "LAeq NOTUR": 0.0, "LOCAÇÃO": null, "ESTAÇÃO": null, "DATA": null }, "geometry": { "type": "Point", "coordinates": [ 711671.0, 8782450.0 ] } },
{ "type": "Feature", "properties": { "ITEM": 176, "NOMENCLATU": "Ponto 176", "X -Longitu": 711918, "Y - Latitu": 8782766, "POLO": "Fora do Polo", "Sequencial": "Mapa 34", "Status - D": "Pendente", "Status - N": "Pendente", "LAeq DIURN": 0.0, "LAeq NOTUR": 0.0, "LOCAÇÃO": null, "ESTAÇÃO": null, "DATA": null }, "geometry": { "type": "Point", "coordinates": [ 711918.0, 8782766.0 ] } },
{ "type": "Feature", "properties": { "ITEM": 177, "NOMENCLATU": "Ponto 177", "X -Longitu": 712185, "Y - Latitu": 8783147, "POLO": "Fora do Polo", "Sequencial": "Mapa 34", "Status - D": "Pendente", "Status - N": "Pendente", "LAeq DIURN": 0.0, "LAeq NOTUR": 0.0, "LOCAÇÃO": null, "ESTAÇÃO": null, "DATA": null }, "geometry": { "type": "Point", "coordinates": [ 712185.0, 8783147.0 ] } },
{ "type": "Feature", "properties": { "ITEM": 178, "NOMENCLATU": "Ponto 178", "X -Longitu": 711996, "Y - Latitu": 8783367, "POLO": "Fora do Polo", "Sequencial": "Mapa 34", "Status - D": "Pendente", "Status - N": "Pendente", "LAeq DIURN": 0.0, "LAeq NOTUR": 0.0, "LOCAÇÃO": null, "ESTAÇÃO": null, "DATA": null }, "geometry": { "type": "Point", "coordinates": [ 711996.0, 8783367.0 ] } },
{ "type": "Feature", "properties": { "ITEM": 179, "NOMENCLATU": "Ponto 179", "X -Longitu": 711695, "Y - Latitu": 8783519, "POLO": "Fora do Polo", "Sequencial": "Mapa 34", "Status - D": "Pendente", "Status - N": "Pendente", "LAeq DIURN": 0.0, "LAeq NOTUR": 0.0, "LOCAÇÃO": null, "ESTAÇÃO": null, "DATA": null }, "geometry": { "type": "Point", "coordinates": [ 711695.0, 8783519.0 ] } },
{ "type": "Feature", "properties": { "ITEM": 180, "NOMENCLATU": "Ponto 180", "X -Longitu": 711302, "Y - Latitu": 8783723, "POLO": "Fora do Polo", "Sequencial": "Mapa 34", "Status - D": "Pendente", "Status - N": "Pendente", "LAeq DIURN": 0.0, "LAeq NOTUR": 0.0, "LOCAÇÃO": null, "ESTAÇÃO": null, "DATA": null }, "geometry": { "type": "Point", "coordinates": [ 711302.0, 8783723.0 ] } },
{ "type": "Feature", "properties": { "ITEM": 181, "NOMENCLATU": "Ponto 181", "X -Longitu": 711039, "Y - Latitu": 8783438, "POLO": "Fora do Polo", "Sequencial": "Mapa 34", "Status - D": "Pendente", "Status - N": "Pendente", "LAeq DIURN": 0.0, "LAeq NOTUR": 0.0, "LOCAÇÃO": null, "ESTAÇÃO": null, "DATA": null }, "geometry": { "type": "Point", "coordinates": [ 711039.0, 8783438.0 ] } },
{ "type": "Feature", "properties": { "ITEM": 182, "NOMENCLATU": "Ponto 182", "X -Longitu": 710856, "Y - Latitu": 8783192, "POLO": "Fora do Polo", "Sequencial": "Mapa 34", "Status - D": "Pendente", "Status - N": "Pendente", "LAeq DIURN": 0.0, "LAeq NOTUR": 0.0, "LOCAÇÃO": null, "ESTAÇÃO": null, "DATA": null }, "geometry": { "type": "Point", "coordinates": [ 710856.0, 8783192.0 ] } },
{ "type": "Feature", "properties": { "ITEM": 183, "NOMENCLATU": "Ponto 183", "X -Longitu": 710557, "Y - Latitu": 8782806, "POLO": "Fora do Polo", "Sequencial": "Mapa 34", "Status - D": "Pendente", "Status - N": "Pendente", "LAeq DIURN": 0.0, "LAeq NOTUR": 0.0, "LOCAÇÃO": null, "ESTAÇÃO": null, "DATA": null }, "geometry": { "type": "Point", "coordinates": [ 710557.0, 8782806.0 ] } },
{ "type": "Feature", "properties": { "ITEM": 184, "NOMENCLATU": "Ponto 184", "X -Longitu": 710282, "Y - Latitu": 8782448, "POLO": "Fora do Polo", "Sequencial": "Mapa 34", "Status - D": "Pendente", "Status - N": "Pendente", "LAeq DIURN": 0.0, "LAeq NOTUR": 0.0, "LOCAÇÃO": null, "ESTAÇÃO": null, "DATA": null }, "geometry": { "type": "Point", "coordinates": [ 710282.0, 8782448.0 ] } },
{ "type": "Feature", "properties": { "ITEM": 185, "NOMENCLATU": "Ponto 185", "X -Longitu": 724350, "Y - Latitu": 8823555, "POLO": "CP", "Sequencial": "Mapa 35", "Status - D": "Pendente", "Status - N": "Pendente", "LAeq DIURN": 0.0, "LAeq NOTUR": 0.0, "LOCAÇÃO": null, "ESTAÇÃO": "UTRF", "DATA": null }, "geometry": { "type": "Point", "coordinates": [ 724342.668211464304477, 8823537.384218839928508 ] } },
{ "type": "Feature", "properties": { "ITEM": 186, "NOMENCLATU": "Ponto 186", "X -Longitu": 724410, "Y - Latitu": 8823442, "POLO": "CP", "Sequencial": "Mapa 35", "Status - D": "Pendente", "Status - N": "Pendente", "LAeq DIURN": 0.0, "LAeq NOTUR": 0.0, "LOCAÇÃO": null, "ESTAÇÃO": "UTRF", "DATA": null }, "geometry": { "type": "Point", "coordinates": [ 724410.0, 8823442.0 ] } },
{ "type": "Feature", "properties": { "ITEM": 187, "NOMENCLATU": "Ponto 187", "X -Longitu": 724466, "Y - Latitu": 8823322, "POLO": "CP", "Sequencial": "Mapa 35", "Status - D": "Pendente", "Status - N": "Pendente", "LAeq DIURN": 0.0, "LAeq NOTUR": 0.0, "LOCAÇÃO": null, "ESTAÇÃO": "UTRF", "DATA": null }, "geometry": { "type": "Point", "coordinates": [ 724455.866635351907462, 8823271.187925208359957 ] } },
{ "type": "Feature", "properties": { "ITEM": 188, "NOMENCLATU": "Ponto 188", "X -Longitu": 724720, "Y - Latitu": 8823207, "POLO": "CP", "Sequencial": "Mapa 35", "Status - D": "Pendente", "Status - N": "Pendente", "LAeq DIURN": 0.0, "LAeq NOTUR": 0.0, "LOCAÇÃO": null, "ESTAÇÃO": "UTRF", "DATA": null }, "geometry": { "type": "Point", "coordinates": [ 724720.0, 8823207.0 ] } },
{ "type": "Feature", "properties": { "ITEM": 189, "NOMENCLATU": "Ponto 189", "X -Longitu": 724964, "Y - Latitu": 8823194, "POLO": "CP", "Sequencial": "Mapa 35", "Status - D": "Pendente", "Status - N": "Pendente", "LAeq DIURN": 0.0, "LAeq NOTUR": 0.0, "LOCAÇÃO": null, "ESTAÇÃO": "UTRF", "DATA": null }, "geometry": { "type": "Point", "coordinates": [ 724964.0, 8823194.0 ] } },
{ "type": "Feature", "properties": { "ITEM": 190, "NOMENCLATU": "Ponto 190", "X -Longitu": 725203, "Y - Latitu": 8823303, "POLO": "CP", "Sequencial": "Mapa 35", "Status - D": "Pendente", "Status - N": "Pendente", "LAeq DIURN": 0.0, "LAeq NOTUR": 0.0, "LOCAÇÃO": null, "ESTAÇÃO": "UTRF", "DATA": null }, "geometry": { "type": "Point", "coordinates": [ 725203.0, 8823303.0 ] } },
{ "type": "Feature", "properties": { "ITEM": 191, "NOMENCLATU": "Ponto 191", "X -Longitu": 725004, "Y - Latitu": 8823449, "POLO": "CP", "Sequencial": "Mapa 35", "Status - D": "Pendente", "Status - N": "Pendente", "LAeq DIURN": 0.0, "LAeq NOTUR": 0.0, "LOCAÇÃO": null, "ESTAÇÃO": "UTRF", "DATA": null }, "geometry": { "type": "Point", "coordinates": [ 725004.0, 8823449.0 ] } },
{ "type": "Feature", "properties": { "ITEM": 192, "NOMENCLATU": "Ponto 192", "X -Longitu": 724718, "Y - Latitu": 8823625, "POLO": "CP", "Sequencial": "Mapa 35", "Status - D": "Pendente", "Status - N": "Pendente", "LAeq DIURN": 0.0, "LAeq NOTUR": 0.0, "LOCAÇÃO": null, "ESTAÇÃO": "UTRF", "DATA": null }, "geometry": { "type": "Point", "coordinates": [ 724732.462784180417657, 8823624.583004731684923 ] } },
{ "type": "Feature", "properties": { "ITEM": 193, "NOMENCLATU": "Ponto 193", "X -Longitu": 724510, "Y - Latitu": 8823642, "POLO": "CP", "Sequencial": "Mapa 35", "Status - D": "Pendente", "Status - N": "Pendente", "LAeq DIURN": 0.0, "LAeq NOTUR": 0.0, "LOCAÇÃO": null, "ESTAÇÃO": "UTRF", "DATA": null }, "geometry": { "type": "Point", "coordinates": [ 724510.0, 8823642.0 ] } },
{ "type": "Feature", "properties": { "ITEM": 194, "NOMENCLATU": "Ponto 194", "X -Longitu": 720978, "Y - Latitu": 8822045, "POLO": "CP", "Sequencial": "36", "Status - D": "Pendente", "Status - N": "Pendente", "LAeq DIURN": 0.0, "LAeq NOTUR": 0.0, "LOCAÇÃO": null, "ESTAÇÃO": null, "DATA": null }, "geometry": { "type": "Point", "coordinates": [ 720978.0, 8822045.0 ] } },
{ "type": "Feature", "properties": { "ITEM": 195, "NOMENCLATU": "Ponto 195", "X -Longitu": 721212, "Y - Latitu": 8822184, "POLO": "CP", "Sequencial": "36", "Status - D": "Pendente", "Status - N": "Pendente", "LAeq DIURN": 0.0, "LAeq NOTUR": 0.0, "LOCAÇÃO": null, "ESTAÇÃO": null, "DATA": null }, "geometry": { "type": "Point", "coordinates": [ 721207.461864341632463, 8822147.453571436926723 ] } },
{ "type": "Feature", "properties": { "ITEM": 196, "NOMENCLATU": "Ponto 196", "X -Longitu": 721455, "Y - Latitu": 8822376, "POLO": "CP", "Sequencial": "36", "Status - D": "Pendente", "Status - N": "Pendente", "LAeq DIURN": 0.0, "LAeq NOTUR": 0.0, "LOCAÇÃO": null, "ESTAÇÃO": null, "DATA": null }, "geometry": { "type": "Point", "coordinates": [ 721443.458578454097733, 8822371.050458196550608 ] } },
{ "type": "Feature", "properties": { "ITEM": 197, "NOMENCLATU": "Ponto 197", "X -Longitu": 721273, "Y - Latitu": 8822521, "POLO": "CP", "Sequencial": "36", "Status - D": "Pendente", "Status - N": "Pendente", "LAeq DIURN": 0.0, "LAeq NOTUR": 0.0, "LOCAÇÃO": null, "ESTAÇÃO": null, "DATA": null }, "geometry": { "type": "Point", "coordinates": [ 721273.0, 8822521.0 ] } },
{ "type": "Feature", "properties": { "ITEM": 198, "NOMENCLATU": "Ponto 198", "X -Longitu": 721738, "Y - Latitu": 8822661, "POLO": "CP", "Sequencial": "36", "Status - D": "Pendente", "Status - N": "Pendente", "LAeq DIURN": 0.0, "LAeq NOTUR": 0.0, "LOCAÇÃO": null, "ESTAÇÃO": null, "DATA": null }, "geometry": { "type": "Point", "coordinates": [ 721738.0, 8822661.0 ] } },
{ "type": "Feature", "properties": { "ITEM": 199, "NOMENCLATU": "Ponto 199", "X -Longitu": 721177, "Y - Latitu": 8822486, "POLO": "CP", "Sequencial": "36", "Status - D": "Pendente", "Status - N": "Pendente", "LAeq DIURN": 0.0, "LAeq NOTUR": 0.0, "LOCAÇÃO": null, "ESTAÇÃO": null, "DATA": null }, "geometry": { "type": "Point", "coordinates": [ 721177.0, 8822486.0 ] } },
{ "type": "Feature", "properties": { "ITEM": 200, "NOMENCLATU": "Ponto 200", "X -Longitu": 721076, "Y - Latitu": 8822450, "POLO": "CP", "Sequencial": "36", "Status - D": "Pendente", "Status - N": "Pendente", "LAeq DIURN": 0.0, "LAeq NOTUR": 0.0, "LOCAÇÃO": null, "ESTAÇÃO": null, "DATA": null }, "geometry": { "type": "Point", "coordinates": [ 721076.0, 8822450.0 ] } },
{ "type": "Feature", "properties": { "ITEM": 201, "NOMENCLATU": "Ponto 201", "X -Longitu": 721007, "Y - Latitu": 8822409, "POLO": "CP", "Sequencial": "36", "Status - D": "Pendente", "Status - N": "Pendente", "LAeq DIURN": 0.0, "LAeq NOTUR": 0.0, "LOCAÇÃO": null, "ESTAÇÃO": null, "DATA": null }, "geometry": { "type": "Point", "coordinates": [ 721007.0, 8822409.0 ] } },
{ "type": "Feature", "properties": { "ITEM": 202, "NOMENCLATU": "Ponto 202", "X -Longitu": 720985, "Y - Latitu": 8822309, "POLO": "CP", "Sequencial": "36", "Status - D": "Pendente", "Status - N": "Pendente", "LAeq DIURN": 0.0, "LAeq NOTUR": 0.0, "LOCAÇÃO": null, "ESTAÇÃO": null, "DATA": null }, "geometry": { "type": "Point", "coordinates": [ 720985.0, 8822309.0 ] } },
{ "type": "Feature", "properties": { "ITEM": 203, "NOMENCLATU": "Ponto 203", "X -Longitu": 720935, "Y - Latitu": 8822226, "POLO": "CP", "Sequencial": "36", "Status - D": "Pendente", "Status - N": "Pendente", "LAeq DIURN": 0.0, "LAeq NOTUR": 0.0, "LOCAÇÃO": null, "ESTAÇÃO": null, "DATA": null }, "geometry": { "type": "Point", "coordinates": [ 720935.0, 8822226.0 ] } },
{ "type": "Feature", "properties": { "ITEM": 204, "NOMENCLATU": "Ponto 204", "X -Longitu": 720875, "Y - Latitu": 8822245, "POLO": "CP", "Sequencial": "36", "Status - D": "Pendente", "Status - N": "Pendente", "LAeq DIURN": 0.0, "LAeq NOTUR": 0.0, "LOCAÇÃO": null, "ESTAÇÃO": null, "DATA": null }, "geometry": { "type": "Point", "coordinates": [ 720875.0, 8822245.0 ] } },
{ "type": "Feature", "properties": { "ITEM": 205, "NOMENCLATU": "Ponto 205", "X -Longitu": 720902, "Y - Latitu": 8822140, "POLO": "CP", "Sequencial": "36", "Status - D": "Pendente", "Status - N": "Pendente", "LAeq DIURN": 0.0, "LAeq NOTUR": 0.0, "LOCAÇÃO": null, "ESTAÇÃO": null, "DATA": null }, "geometry": { "type": "Point", "coordinates": [ 720902.0, 8822140.0 ] } },
{ "type": "Feature", "properties": { "ITEM": 206, "NOMENCLATU": "Ponto 206", "X -Longitu": 720851, "Y - Latitu": 8822055, "POLO": "CP", "Sequencial": "36", "Status - D": "Pendente", "Status - N": "Pendente", "LAeq DIURN": 0.0, "LAeq NOTUR": 0.0, "LOCAÇÃO": null, "ESTAÇÃO": null, "DATA": null }, "geometry": { "type": "Point", "coordinates": [ 720851.0, 8822055.0 ] } },
{ "type": "Feature", "properties": { "ITEM": 207, "NOMENCLATU": "Ponto 207", "X -Longitu": 721394, "Y - Latitu": 8822939, "POLO": "CP", "Sequencial": "37", "Status - D": "Pendente", "Status - N": "Pendente", "LAeq DIURN": 0.0, "LAeq NOTUR": 0.0, "LOCAÇÃO": null, "ESTAÇÃO": null, "DATA": null }, "geometry": { "type": "Point", "coordinates": [ 721394.0, 8822939.0 ] } },
{ "type": "Feature", "properties": { "ITEM": 208, "NOMENCLATU": "Ponto 208", "X -Longitu": 721383, "Y - Latitu": 8822814, "POLO": "CP", "Sequencial": "37", "Status - D": "Pendente", "Status - N": "Pendente", "LAeq DIURN": 0.0, "LAeq NOTUR": 0.0, "LOCAÇÃO": null, "ESTAÇÃO": null, "DATA": null }, "geometry": { "type": "Point", "coordinates": [ 721383.0, 8822814.0 ] } },
{ "type": "Feature", "properties": { "ITEM": 209, "NOMENCLATU": "Ponto 209", "X -Longitu": 721367, "Y - Latitu": 8822695, "POLO": "CP", "Sequencial": "37", "Status - D": "Pendente", "Status - N": "Pendente", "LAeq DIURN": 0.0, "LAeq NOTUR": 0.0, "LOCAÇÃO": null, "ESTAÇÃO": null, "DATA": null }, "geometry": { "type": "Point", "coordinates": [ 721367.0, 8822695.0 ] } },
{ "type": "Feature", "properties": { "ITEM": 210, "NOMENCLATU": "Ponto 210", "X -Longitu": 721307, "Y - Latitu": 8822629, "POLO": "CP", "Sequencial": "37", "Status - D": "Pendente", "Status - N": "Pendente", "LAeq DIURN": 0.0, "LAeq NOTUR": 0.0, "LOCAÇÃO": null, "ESTAÇÃO": null, "DATA": null }, "geometry": { "type": "Point", "coordinates": [ 721307.0, 8822629.0 ] } },
{ "type": "Feature", "properties": { "ITEM": 211, "NOMENCLATU": "Ponto 211", "X -Longitu": 721462, "Y - Latitu": 8822642, "POLO": "CP", "Sequencial": "37", "Status - D": "Pendente", "Status - N": "Pendente", "LAeq DIURN": 0.0, "LAeq NOTUR": 0.0, "LOCAÇÃO": null, "ESTAÇÃO": null, "DATA": null }, "geometry": { "type": "Point", "coordinates": [ 721462.0, 8822642.0 ] } },
{ "type": "Feature", "properties": { "ITEM": 212, "NOMENCLATU": "Ponto 212", "X -Longitu": 721587, "Y - Latitu": 8822594, "POLO": "CP", "Sequencial": "37", "Status - D": "Pendente", "Status - N": "Pendente", "LAeq DIURN": 0.0, "LAeq NOTUR": 0.0, "LOCAÇÃO": null, "ESTAÇÃO": null, "DATA": null }, "geometry": { "type": "Point", "coordinates": [ 721587.0, 8822594.0 ] } },
{ "type": "Feature", "properties": { "ITEM": 213, "NOMENCLATU": "Ponto 213", "X -Longitu": 721728, "Y - Latitu": 8822804, "POLO": "CP", "Sequencial": "37", "Status - D": "Pendente", "Status - N": "Pendente", "LAeq DIURN": 0.0, "LAeq NOTUR": 0.0, "LOCAÇÃO": null, "ESTAÇÃO": null, "DATA": null }, "geometry": { "type": "Point", "coordinates": [ 721728.0, 8822804.0 ] } },
{ "type": "Feature", "properties": { "ITEM": 214, "NOMENCLATU": "Ponto 214", "X -Longitu": 721638, "Y - Latitu": 8822893, "POLO": "CP", "Sequencial": "37", "Status - D": "Pendente", "Status - N": "Pendente", "LAeq DIURN": 0.0, "LAeq NOTUR": 0.0, "LOCAÇÃO": null, "ESTAÇÃO": null, "DATA": null }, "geometry": { "type": "Point", "coordinates": [ 721638.0, 8822893.0 ] } },
{ "type": "Feature", "properties": { "ITEM": 215, "NOMENCLATU": "Ponto 215", "X -Longitu": 721455, "Y - Latitu": 8822869, "POLO": "CP", "Sequencial": "37", "Status - D": "Pendente", "Status - N": "Pendente", "LAeq DIURN": 0.0, "LAeq NOTUR": 0.0, "LOCAÇÃO": null, "ESTAÇÃO": null, "DATA": null }, "geometry": { "type": "Point", "coordinates": [ 721455.0, 8822869.0 ] } },
{ "type": "Feature", "properties": { "ITEM": 216, "NOMENCLATU": "Ponto 216", "X -Longitu": 705997, "Y - Latitu": 8816444, "POLO": "MG", "Sequencial": "38", "Status - D": "Pendente", "Status - N": "Pendente", "LAeq DIURN": 0.0, "LAeq NOTUR": 0.0, "LOCAÇÃO": null, "ESTAÇÃO": "EC MATO GROSSO\n", "DATA": null }, "geometry": { "type": "Point", "coordinates": [ 705997.0, 8816444.0 ] } },
{ "type": "Feature", "properties": { "ITEM": 217, "NOMENCLATU": "Ponto 217", "X -Longitu": 706088, "Y - Latitu": 8816321, "POLO": "MG", "Sequencial": "38", "Status - D": "Pendente", "Status - N": "Pendente", "LAeq DIURN": 0.0, "LAeq NOTUR": 0.0, "LOCAÇÃO": null, "ESTAÇÃO": "EC MATO GROSSO\n", "DATA": null }, "geometry": { "type": "Point", "coordinates": [ 706088.0, 8816321.0 ] } },
{ "type": "Feature", "properties": { "ITEM": 218, "NOMENCLATU": "Ponto 218", "X -Longitu": 706142, "Y - Latitu": 8816392, "POLO": "MG", "Sequencial": "38", "Status - D": "Pendente", "Status - N": "Pendente", "LAeq DIURN": 0.0, "LAeq NOTUR": 0.0, "LOCAÇÃO": null, "ESTAÇÃO": "EC MATO GROSSO\n", "DATA": null }, "geometry": { "type": "Point", "coordinates": [ 706142.0, 8816392.0 ] } },
{ "type": "Feature", "properties": { "ITEM": 219, "NOMENCLATU": "Ponto 219", "X -Longitu": 706266, "Y - Latitu": 8816453, "POLO": "MG", "Sequencial": "38", "Status - D": "Pendente", "Status - N": "Pendente", "LAeq DIURN": 0.0, "LAeq NOTUR": 0.0, "LOCAÇÃO": null, "ESTAÇÃO": "EC MATO GROSSO\n", "DATA": null }, "geometry": { "type": "Point", "coordinates": [ 706266.0, 8816453.0 ] } },
{ "type": "Feature", "properties": { "ITEM": 220, "NOMENCLATU": "Ponto 220", "X -Longitu": 706322, "Y - Latitu": 8816523, "POLO": "MG", "Sequencial": "38", "Status - D": "Pendente", "Status - N": "Pendente", "LAeq DIURN": 0.0, "LAeq NOTUR": 0.0, "LOCAÇÃO": null, "ESTAÇÃO": "EC MATO GROSSO\n", "DATA": null }, "geometry": { "type": "Point", "coordinates": [ 706322.0, 8816523.0 ] } },
{ "type": "Feature", "properties": { "ITEM": 221, "NOMENCLATU": "Ponto 221", "X -Longitu": 706384, "Y - Latitu": 8816630, "POLO": "MG", "Sequencial": "38", "Status - D": "Pendente", "Status - N": "Pendente", "LAeq DIURN": 0.0, "LAeq NOTUR": 0.0, "LOCAÇÃO": null, "ESTAÇÃO": "EC MATO GROSSO\n", "DATA": null }, "geometry": { "type": "Point", "coordinates": [ 706384.0, 8816630.0 ] } },
{ "type": "Feature", "properties": { "ITEM": 222, "NOMENCLATU": "Ponto 222", "X -Longitu": 697882, "Y - Latitu": 8816158, "POLO": "RO", "Sequencial": "39", "Status - D": "Pendente", "Status - N": "Pendente", "LAeq DIURN": 0.0, "LAeq NOTUR": 0.0, "LOCAÇÃO": null, "ESTAÇÃO": "COLETORA BONFIM\n", "DATA": null }, "geometry": { "type": "Point", "coordinates": [ 697882.0, 8816158.0 ] } },
{ "type": "Feature", "properties": { "ITEM": 223, "NOMENCLATU": "Ponto 223", "X -Longitu": 697975, "Y - Latitu": 8816288, "POLO": "RO", "Sequencial": "39", "Status - D": "Pendente", "Status - N": "Pendente", "LAeq DIURN": 0.0, "LAeq NOTUR": 0.0, "LOCAÇÃO": null, "ESTAÇÃO": "COLETORA BONFIM\n", "DATA": null }, "geometry": { "type": "Point", "coordinates": [ 697975.0, 8816288.0 ] } },
{ "type": "Feature", "properties": { "ITEM": 224, "NOMENCLATU": "Ponto 224", "X -Longitu": 698014, "Y - Latitu": 8816422, "POLO": "RO", "Sequencial": "39", "Status - D": "Pendente", "Status - N": "Pendente", "LAeq DIURN": 0.0, "LAeq NOTUR": 0.0, "LOCAÇÃO": null, "ESTAÇÃO": "COLETORA BONFIM\n", "DATA": null }, "geometry": { "type": "Point", "coordinates": [ 698014.0, 8816422.0 ] } },
{ "type": "Feature", "properties": { "ITEM": 225, "NOMENCLATU": "Ponto 225", "X -Longitu": 698037, "Y - Latitu": 8816511, "POLO": "RO", "Sequencial": "39", "Status - D": "Pendente", "Status - N": "Pendente", "LAeq DIURN": 0.0, "LAeq NOTUR": 0.0, "LOCAÇÃO": null, "ESTAÇÃO": "COLETORA BONFIM\n", "DATA": null }, "geometry": { "type": "Point", "coordinates": [ 698037.0, 8816511.0 ] } },
{ "type": "Feature", "properties": { "ITEM": 226, "NOMENCLATU": "Ponto 226", "X -Longitu": 697551, "Y - Latitu": 8816194, "POLO": "RO", "Sequencial": "39", "Status - D": "Pendente", "Status - N": "Pendente", "LAeq DIURN": 0.0, "LAeq NOTUR": 0.0, "LOCAÇÃO": null, "ESTAÇÃO": "COLETORA BONFIM\n", "DATA": null }, "geometry": { "type": "Point", "coordinates": [ 697551.0, 8816194.0 ] } },
{ "type": "Feature", "properties": { "ITEM": 227, "NOMENCLATU": "Ponto 227", "X -Longitu": 697564, "Y - Latitu": 8816329, "POLO": "RO", "Sequencial": "39", "Status - D": "Pendente", "Status - N": "Pendente", "LAeq DIURN": 0.0, "LAeq NOTUR": 0.0, "LOCAÇÃO": null, "ESTAÇÃO": "COLETORA BONFIM\n", "DATA": null }, "geometry": { "type": "Point", "coordinates": [ 697564.0, 8816329.0 ] } },
{ "type": "Feature", "properties": { "ITEM": 228, "NOMENCLATU": "Ponto 228", "X -Longitu": 697751, "Y - Latitu": 8816403, "POLO": "RO", "Sequencial": "39", "Status - D": "Pendente", "Status - N": "Pendente", "LAeq DIURN": 0.0, "LAeq NOTUR": 0.0, "LOCAÇÃO": null, "ESTAÇÃO": "COLETORA BONFIM\n", "DATA": null }, "geometry": { "type": "Point", "coordinates": [ 697751.0, 8816403.0 ] } },
{ "type": "Feature", "properties": { "ITEM": 229, "NOMENCLATU": "Ponto 229", "X -Longitu": 708588, "Y - Latitu": 8822554, "POLO": "SZ", "Sequencial": "40", "Status - D": "Pendente", "Status - N": "Pendente", "LAeq DIURN": 0.0, "LAeq NOTUR": 0.0, "LOCAÇÃO": null, "ESTAÇÃO": "E.T.P. SIRIRIZINHO", "DATA": null }, "geometry": { "type": "Point", "coordinates": [ 708585.462606068467721, 8822549.872968256473541 ] } },
{ "type": "Feature", "properties": { "ITEM": 230, "NOMENCLATU": "Ponto 230", "X -Longitu": 708832, "Y - Latitu": 8822512, "POLO": "SZ", "Sequencial": "40", "Status - D": "Pendente", "Status - N": "Pendente", "LAeq DIURN": 0.0, "LAeq NOTUR": 0.0, "LOCAÇÃO": null, "ESTAÇÃO": "E.T.P. SIRIRIZINHO", "DATA": null }, "geometry": { "type": "Point", "coordinates": [ 708832.0, 8822512.0 ] } },
{ "type": "Feature", "properties": { "ITEM": 231, "NOMENCLATU": "Ponto 231", "X -Longitu": 708852, "Y - Latitu": 8822387, "POLO": "SZ", "Sequencial": "40", "Status - D": "Pendente", "Status - N": "Pendente", "LAeq DIURN": 0.0, "LAeq NOTUR": 0.0, "LOCAÇÃO": null, "ESTAÇÃO": "E.T.P. SIRIRIZINHO", "DATA": null }, "geometry": { "type": "Point", "coordinates": [ 708857.033824860700406, 8822387.900223480537534 ] } },
{ "type": "Feature", "properties": { "ITEM": 232, "NOMENCLATU": "Ponto 232", "X -Longitu": 708522, "Y - Latitu": 8822306, "POLO": "SZ", "Sequencial": "40", "Status - D": "Pendente", "Status - N": "Pendente", "LAeq DIURN": 0.0, "LAeq NOTUR": 0.0, "LOCAÇÃO": null, "ESTAÇÃO": "E.T.P. SIRIRIZINHO", "DATA": null }, "geometry": { "type": "Point", "coordinates": [ 708491.438915202161297, 8822313.10126494243741 ] } },
{ "type": "Feature", "properties": { "ITEM": 233, "NOMENCLATU": "Ponto 233", "X -Longitu": 779222, "Y - Latitu": 8844988, "POLO": "BRG", "Sequencial": "41", "Status - D": "Pendente", "Status - N": "Pendente", "LAeq DIURN": 0.0, "LAeq NOTUR": 0.0, "LOCAÇÃO": null, "ESTAÇÃO": "E.C. BREJO GRANDE", "DATA": null }, "geometry": { "type": "Point", "coordinates": [ 779222.0, 8844988.0 ] } },
{ "type": "Feature", "properties": { "ITEM": 234, "NOMENCLATU": "Ponto 234", "X -Longitu": 779411, "Y - Latitu": 8845369, "POLO": "Fora do Polo", "Sequencial": "41", "Status - D": "Pendente", "Status - N": "Pendente", "LAeq DIURN": 0.0, "LAeq NOTUR": 0.0, "LOCAÇÃO": null, "ESTAÇÃO": null, "DATA": null }, "geometry": { "type": "Point", "coordinates": [ 779411.0, 8845369.0 ] } },
{ "type": "Feature", "properties": { "ITEM": 235, "NOMENCLATU": "Ponto 235", "X -Longitu": 777520, "Y - Latitu": 8845558, "POLO": "BRG", "Sequencial": "41", "Status - D": "Pendente", "Status - N": "Pendente", "LAeq DIURN": 0.0, "LAeq NOTUR": 0.0, "LOCAÇÃO": null, "ESTAÇÃO": "E.C. BREJO GRANDE", "DATA": null }, "geometry": { "type": "Point", "coordinates": [ 777520.0, 8845558.0 ] } },
{ "type": "Feature", "properties": { "ITEM": 236, "NOMENCLATU": "Ponto 236", "X -Longitu": 777441, "Y - Latitu": 8845808, "POLO": "Fora do Polo", "Sequencial": "41", "Status - D": "Pendente", "Status - N": "Pendente", "LAeq DIURN": 0.0, "LAeq NOTUR": 0.0, "LOCAÇÃO": null, "ESTAÇÃO": null, "DATA": null }, "geometry": { "type": "Point", "coordinates": [ 777441.0, 8845808.0 ] } },
{ "type": "Feature", "properties": { "ITEM": 237, "NOMENCLATU": "Ponto 237", "X -Longitu": 777610, "Y - Latitu": 8846012, "POLO": "Fora do Polo", "Sequencial": "41", "Status - D": "Pendente", "Status - N": "Pendente", "LAeq DIURN": 0.0, "LAeq NOTUR": 0.0, "LOCAÇÃO": null, "ESTAÇÃO": null, "DATA": null }, "geometry": { "type": "Point", "coordinates": [ 777610.0, 8846012.0 ] } },
{ "type": "Feature", "properties": { "ITEM": 238, "NOMENCLATU": "Ponto 238", "X -Longitu": 777580, "Y - Latitu": 8846188, "POLO": "Fora do Polo", "Sequencial": "41", "Status - D": "Pendente", "Status - N": "Pendente", "LAeq DIURN": 0.0, "LAeq NOTUR": 0.0, "LOCAÇÃO": null, "ESTAÇÃO": null, "DATA": null }, "geometry": { "type": "Point", "coordinates": [ 777580.0, 8846188.0 ] } },
{ "type": "Feature", "properties": { "ITEM": 239, "NOMENCLATU": "Ponto 239", "X -Longitu": 778200, "Y - Latitu": 8846402, "POLO": "Fora do Polo", "Sequencial": "41", "Status - D": "Pendente", "Status - N": "Pendente", "LAeq DIURN": 0.0, "LAeq NOTUR": 0.0, "LOCAÇÃO": null, "ESTAÇÃO": null, "DATA": null }, "geometry": { "type": "Point", "coordinates": [ 778200.0, 8846402.0 ] } },
{ "type": "Feature", "properties": { "ITEM": 0, "NOMENCLATU": null, "X -Longitu": null, "Y - Latitu": null, "POLO": null, "Sequencial": null, "Status - D": null, "Status - N": "Pendente", "LAeq DIURN": null, "LAeq NOTUR": null, "LOCAÇÃO": null, "ESTAÇÃO": null, "DATA": null }, "geometry": null },
{ "type": "Feature", "properties": { "ITEM": 160, "NOMENCLATU": "Ponto 160", "X -Longitu": 719537, "Y - Latitu": 8820207, "POLO": "CP", "Sequencial": "Mapa 31", "Status - D": "Pendente", "Status - N": "Pendente", "LAeq DIURN": null, "LAeq NOTUR": null, "LOCAÇÃO": null, "ESTAÇÃO": null, "DATA": null }, "geometry": { "type": "Point", "coordinates": [ 719537.0, 8820207.0 ] } },
{ "type": "Feature", "properties": { "ITEM": 13, "NOMENCLATU": "Ponto 13", "X -Longitu": 719449, "Y - Latitu": 8819869, "POLO": "CP", "Sequencial": null, "Status - D": "Pendente", "Status - N": "Pendente", "LAeq DIURN": null, "LAeq NOTUR": null, "LOCAÇÃO": null, "ESTAÇÃO": null, "DATA": null }, "geometry": { "type": "Point", "coordinates": [ 719449.0, 8819869.0 ] } }
]
}
