{
"type": "FeatureCollection",
"name": "ÁREA-ESTAÇÕES",
"crs": { "type": "name", "properties": { "name": "urn:ogc:def:crs:OGC:1.3:CRS84" } },
"features": [
{ "type": "Feature", "properties": { "Name": "Estação de vapor V", "description": null, "timestamp": null, "begin": null, "end": null, "altitudeMode": null, "tessellate": -1, "extrude": 0, "visibility": -1, "drawOrder": null, "icon": null }, "geometry": { "type": "Polygon", "coordinates": [ [ [ -36.9562317, -10.6462767, 0.0 ], [ -36.9563176, -10.6499671, 0.0 ], [ -36.9527341, -10.6501991, 0.0 ], [ -36.9527985, -10.6464454, 0.0 ], [ -36.9562317, -10.6462767, 0.0 ] ] ] } },
{ "type": "Feature", "properties": { "Name": "Estação de água de oiteirinhos", "description": null, "timestamp": null, "begin": null, "end": null, "altitudeMode": null, "tessellate": -1, "extrude": 0, "visibility": -1, "drawOrder": null, "icon": null }, "geometry": { "type": "Polygon", "coordinates": [ [ [ -36.9697201, -10.6407141, 0.0 ], [ -36.9702995, -10.6433291, 0.0 ], [ -36.9699561, -10.6452904, 0.0 ], [ -36.9654071, -10.6460706, 0.0 ], [ -36.9647205, -10.6415366, 0.0 ], [ -36.9697201, -10.6407141, 0.0 ] ] ] } },
{ "type": "Feature", "properties": { "Name": "Estação ilha Pequena", "description": null, "timestamp": null, "begin": null, "end": null, "altitudeMode": null, "tessellate": -1, "extrude": 0, "visibility": -1, "drawOrder": null, "icon": null }, "geometry": { "type": "Polygon", "coordinates": [ [ [ -37.1956439, -11.0655661, 0.0 ], [ -37.1957297, -11.070199, 0.0 ], [ -37.1915884, -11.0703043, 0.0 ], [ -37.191406, -11.0655977, 0.0 ], [ -37.1953435, -11.0655661, 0.0 ], [ -37.1956439, -11.0655661, 0.0 ] ] ] } },
{ "type": "Feature", "properties": { "Name": "Robalo", "description": null, "timestamp": null, "begin": null, "end": null, "altitudeMode": null, "tessellate": -1, "extrude": 0, "visibility": -1, "drawOrder": null, "icon": null }, "geometry": { "type": "Polygon", "coordinates": [ [ [ -36.7194222, -10.6145952, 0.0 ], [ -36.7227267, -10.6214284, 0.0 ], [ -36.7135857, -10.6246762, 0.0 ], [ -36.7105386, -10.6175056, 0.0 ], [ -36.7194222, -10.6145952, 0.0 ] ] ] } },
{ "type": "Feature", "properties": { "Name": "Estação de Siririzinho I + estação de inejeção de água de SZI", "description": null, "timestamp": null, "begin": null, "end": null, "altitudeMode": null, "tessellate": -1, "extrude": 0, "visibility": -1, "drawOrder": null, "icon": null }, "geometry": { "type": "Polygon", "coordinates": [ [ [ -37.0962685, -10.6365453, 0.0 ], [ -37.0968479, -10.6439052, 0.0 ], [ -37.0885009, -10.6445379, 0.0 ], [ -37.0881146, -10.6369038, 0.0 ], [ -37.0958823, -10.6365453, 0.0 ], [ -37.0962685, -10.6365453, 0.0 ] ] ] } },
{ "type": "Feature", "properties": { "Name": "Estação Bonsucesso", "description": null, "timestamp": null, "begin": null, "end": null, "altitudeMode": null, "tessellate": -1, "extrude": 0, "visibility": -1, "drawOrder": null, "icon": null }, "geometry": { "type": "Polygon", "coordinates": [ [ [ -36.9988833, -10.658266, 0.0 ], [ -37.0007715, -10.6712135, 0.0 ], [ -36.9829188, -10.67134, 0.0 ], [ -36.9820605, -10.6582239, 0.0 ], [ -36.9988833, -10.658266, 0.0 ] ] ] } },
{ "type": "Feature", "properties": { "Name": "Estação Treme", "description": null, "timestamp": null, "begin": null, "end": null, "altitudeMode": null, "tessellate": -1, "extrude": 0, "visibility": -1, "drawOrder": null, "icon": null }, "geometry": { "type": "Polygon", "coordinates": [ [ [ -37.2575793, -10.7394975, 0.0 ], [ -37.2584162, -10.7448733, 0.0 ], [ -37.2512922, -10.7460961, 0.0 ], [ -37.2500691, -10.7400035, 0.0 ], [ -37.2575793, -10.7394975, 0.0 ] ] ] } },
{ "type": "Feature", "properties": { "Name": "Estação Coqueiro", "description": null, "timestamp": null, "begin": null, "end": null, "altitudeMode": null, "tessellate": -1, "extrude": 0, "visibility": -1, "drawOrder": null, "icon": null }, "geometry": { "type": "Polygon", "coordinates": [ [ [ -37.1965355, -10.7135327, 0.0 ], [ -37.1965462, -10.7166847, 0.0 ], [ -37.1901626, -10.7181394, 0.0 ], [ -37.1890468, -10.7142284, 0.0 ], [ -37.1965355, -10.7135327, 0.0 ] ] ] } },
{ "type": "Feature", "properties": { "Name": "Estação Nova Magalhães + Vapor III", "description": null, "timestamp": null, "begin": null, "end": null, "altitudeMode": null, "tessellate": -1, "extrude": 0, "visibility": -1, "drawOrder": null, "icon": null }, "geometry": { "type": "Polygon", "coordinates": [ [ [ -36.9456526, -10.6317341, 0.0 ], [ -36.9433781, -10.6338958, 0.0 ], [ -36.9412645, -10.6324723, 0.0 ], [ -36.9437107, -10.6302473, 0.0 ], [ -36.9456526, -10.6317341, 0.0 ] ] ] } },
{ "type": "Feature", "properties": { "Name": "Estação Bonfim", "description": null, "timestamp": null, "begin": null, "end": null, "altitudeMode": null, "tessellate": -1, "extrude": 0, "visibility": -1, "drawOrder": null, "icon": null }, "geometry": { "type": "Polygon", "coordinates": [ [ [ -37.1932316, -10.6944061, 0.0 ], [ -37.1934891, -10.698096, 0.0 ], [ -37.1868372, -10.6994665, 0.0 ], [ -37.185936, -10.6953128, 0.0 ], [ -37.1928239, -10.6944061, 0.0 ], [ -37.1932316, -10.6944061, 0.0 ] ] ] } }
]
}
